{"type":"FeatureCollection","features":[{"type":"Feature","properties":{"name":"Official Boundary of India","source":"Survey of India","scale":"1:16M generalized digital data"},"geometry":{"type":"MultiLineString","coordinates":[[[93.84794,6.78167],[93.84794,6.78167]],[[93.95032,6.93412],[93.95032,6.93412]],[[93.95313,6.93764],[93.95313,6.93764]],[[93.94631,6.95384],[93.94631,6.95384]],[[93.94759,6.95399],[93.94759,6.95399]],[[93.94594,6.95634],[93.94594,6.95634]],[[93.9444,6.98681],[93.9444,6.98681]],[[93.94529,6.99181],[93.94529,6.99181]],[[93.94501,6.9918],[93.94501,6.9918]],[[93.94677,7.01138],[93.94677,7.01138]],[[93.94536,7.01282],[93.94536,7.01282]],[[93.92696,7.02825],[93.92696,7.02825]],[[93.90414,7.07775],[93.90414,7.07775]],[[93.71585,7.21934],[93.71585,7.21934]],[[93.70099,7.228],[93.70842,7.20888],[93.70099,7.228]],[[93.83742,7.24045],[93.83879,7.2164],[93.8689,7.20529],[93.88032,7.09254],[93.94434,7.00279],[93.90974,6.99847],[93.94132,6.9567],[93.89188,6.90192],[93.89232,6.80339],[93.84713,6.81126],[93.84792,6.83511],[93.8194,6.7543],[93.80015,6.76353],[93.80739,6.81082],[93.76235,6.86403],[93.7753,6.87976],[93.73254,6.92034],[93.74076,6.95652],[93.71768,6.98793],[93.73327,6.9748],[93.73783,6.9903],[93.69543,6.9931],[93.70075,7.02343],[93.65509,7.00756],[93.64557,7.10393],[93.66441,7.11063],[93.64331,7.12538],[93.67457,7.19122],[93.72045,7.18917],[93.74929,7.21592],[93.79189,7.20874],[93.79946,7.23343],[93.83742,7.24045]],[[93.79666,7.2447],[93.79666,7.2447]],[[93.84569,7.28536],[93.84569,7.28536]],[[93.83497,7.28728],[93.83497,7.28728]],[[93.62007,7.33083],[93.62007,7.33083]],[[93.68376,7.39995],[93.67007,7.40869],[93.68376,7.39995]],[[93.76865,7.40177],[93.76865,7.40177]],[[93.75641,7.40555],[93.75641,7.40555]],[[93.69947,7.44738],[93.74394,7.36216],[93.63581,7.24281],[93.60984,7.31402],[93.6186,7.36977],[93.70147,7.39367],[93.69947,7.44738]],[[93.63133,7.47161],[93.63133,7.47161]],[[93.65112,7.47166],[93.65112,7.47166]],[[93.63715,7.47841],[93.63715,7.47841]],[[93.62326,7.47939],[93.62326,7.47939]],[[93.54739,7.52004],[93.54739,7.52004]],[[93.53064,7.52649],[93.53064,7.52649]],[[73.01036,8.27756],[73.01036,8.27756]],[[73.01384,8.30169],[73.01384,8.30169]],[[73.05402,8.27301],[73.01769,8.27477],[73.04659,8.27439],[73.0748,8.32032],[73.05402,8.27301]],[[93.4418,7.87635],[93.4418,7.87635]],[[93.38663,7.88985],[93.38663,7.88985]],[[93.38951,7.89054],[93.38951,7.89054]],[[93.39439,7.90212],[93.39439,7.90212]],[[93.39682,7.90178],[93.39682,7.90178]],[[93.32672,7.93022],[93.32672,7.93022]],[[93.33828,7.93728],[93.33828,7.93728]],[[93.56871,7.92681],[93.56871,7.92681]],[[93.47735,8.00909],[93.47735,8.00909]],[[93.47917,8.00969],[93.47917,8.00969]],[[93.36945,8.02353],[93.40063,8.00939],[93.40252,7.96318],[93.45338,7.93473],[93.45125,7.87264],[93.41341,7.90674],[93.36765,7.87781],[93.33525,7.90112],[93.33787,7.94728],[93.32448,7.92519],[93.30775,7.93416],[93.31998,8.00738],[93.36945,8.02353]],[[93.47579,8.01306],[93.47579,8.01306]],[[93.47499,8.0149],[93.47499,8.0149]],[[93.47523,8.0164],[93.47523,8.0164]],[[93.54084,8.02845],[93.57022,7.99497],[93.56792,7.93468],[93.49789,7.98389],[93.51888,8.02426],[93.54269,7.99226],[93.54084,8.02845]],[[93.47433,8.03481],[93.47433,8.03481]],[[93.49508,8.04863],[93.49508,8.04863]],[[93.51401,8.0644],[93.51401,8.0644]],[[93.51478,8.0689],[93.51478,8.0689]],[[93.51361,8.07471],[93.51361,8.07471]],[[93.57595,8.11916],[93.58345,8.03873],[93.55309,8.11907],[93.57595,8.11916]],[[93.19396,8.18634],[93.19396,8.18634]],[[93.18827,8.19022],[93.18827,8.19022]],[[93.19731,8.19024],[93.19731,8.19024]],[[93.17557,8.19372],[93.17557,8.19372]],[[93.18632,8.19359],[93.18632,8.19359]],[[93.18823,8.19499],[93.18823,8.19499]],[[93.21134,8.1968],[93.21134,8.1968]],[[93.12698,8.216],[93.12698,8.216]],[[93.11743,8.21878],[93.11743,8.21878]],[[93.11724,8.22],[93.11724,8.22]],[[93.23887,8.22138],[93.23887,8.22138]],[[93.22683,8.22468],[93.22683,8.22468]],[[93.2344,8.2239],[93.2344,8.2239]],[[93.2423,8.23278],[93.2423,8.23278]],[[78.21,8.83922],[78.21,8.83922]],[[93.24193,8.23371],[93.24193,8.23371]],[[93.24213,8.23412],[93.24213,8.23412]],[[93.51331,8.23506],[93.53628,8.20147],[93.49393,8.14682],[93.53798,8.08895],[93.53991,8.03714],[93.49784,8.03368],[93.48924,7.99901],[93.47711,8.04141],[93.49857,8.038],[93.51711,8.07712],[93.47707,8.05341],[93.47083,8.0867],[93.4868,8.09376],[93.45972,8.1011],[93.43891,8.17443],[93.51331,8.23506]],[[78.22342,8.87278],[78.22342,8.87278]],[[93.22662,8.26571],[93.22893,8.22231],[93.20992,8.25124],[93.22662,8.26571]],[[93.2267,8.26671],[93.2267,8.26671]],[[93.08934,8.34527],[93.08934,8.34527]],[[78.27373,8.94396],[78.27373,8.94396]],[[93.11723,8.35651],[93.13351,8.34602],[93.11878,8.27531],[93.19494,8.21596],[93.1909,8.19612],[93.11487,8.22284],[93.07738,8.27104],[93.08438,8.33836],[93.11723,8.35651]],[[78.25309,8.95206],[78.25309,8.95206]],[[93.04971,8.44245],[93.04971,8.44245]],[[93.04984,8.44302],[93.04984,8.44302]],[[93.05036,8.44378],[93.05036,8.44378]],[[93.04998,8.44453],[93.04998,8.44453]],[[93.05027,8.44473],[93.05027,8.44473]],[[93.04981,8.44505],[93.04981,8.44505]],[[93.04976,8.44556],[93.04976,8.44556]],[[93.63573,8.39255],[93.63573,8.39255]],[[93.62565,8.39404],[93.62565,8.39404]],[[93.62734,8.39473],[93.62734,8.39473]],[[93.62722,8.39512],[93.62722,8.39512]],[[93.6321,8.39478],[93.6321,8.39478]],[[93.62614,8.39553],[93.62614,8.39553]],[[93.6434,8.39454],[93.6434,8.39454]],[[93.6248,8.39794],[93.6248,8.39794]],[[93.62324,8.39791],[93.62324,8.39791]],[[93.62311,8.39836],[93.62311,8.39836]],[[93.62435,8.39703],[93.62435,8.39703]],[[93.62348,8.39837],[93.62348,8.39837]],[[93.63426,8.39674],[93.63426,8.39674]],[[93.62328,8.39885],[93.62328,8.39885]],[[93.62341,8.39918],[93.62341,8.39918]],[[93.62262,8.40029],[93.62262,8.40029]],[[93.63247,8.39944],[93.63247,8.39944]],[[93.62307,8.40014],[93.62307,8.40014]],[[93.62281,8.40064],[93.62281,8.40064]],[[93.62229,8.40092],[93.62229,8.40092]],[[93.62254,8.40182],[93.62254,8.40182]],[[93.62367,8.41705],[93.62367,8.41705]],[[93.04442,8.46417],[93.0382,8.44005],[93.02471,8.45544],[93.04442,8.46417]],[[93.61388,8.41776],[93.61388,8.41776]],[[93.62266,8.41873],[93.62266,8.41873]],[[93.61324,8.41949],[93.61324,8.41949]],[[93.61309,8.42063],[93.61309,8.42063]],[[93.62255,8.41939],[93.62255,8.41939]],[[93.6137,8.42072],[93.6137,8.42072]],[[93.62222,8.42072],[93.62222,8.42072]],[[93.62212,8.42162],[93.62212,8.42162]],[[93.61261,8.42266],[93.61261,8.42266]],[[93.62041,8.42582],[93.62041,8.42582]],[[93.62007,8.42764],[93.62007,8.42764]],[[93.6267,8.42897],[93.6267,8.42897]],[[93.60647,8.43228],[93.60647,8.43228]],[[93.60746,8.43602],[93.60746,8.43602]],[[78.49274,9.08642],[78.49274,9.08642]],[[93.61627,8.45436],[93.61627,8.45436]],[[93.61788,8.45491],[93.61788,8.45491]],[[93.61717,8.45541],[93.61717,8.45541]],[[93.6176,8.45604],[93.6176,8.45604]],[[93.61701,8.45591],[93.61701,8.45591]],[[93.60769,8.45767],[93.60769,8.45767]],[[78.5368,9.10186],[78.5368,9.10186]],[[93.61076,8.45922],[93.61076,8.45922]],[[93.62057,8.45877],[93.62057,8.45877]],[[78.58171,9.11097],[78.58171,9.11097]],[[79.48929,9.11904],[79.48929,9.11904]],[[93.62568,8.47024],[93.62568,8.47024]],[[79.48889,9.12751],[79.48889,9.12751]],[[79.48191,9.1302],[79.48191,9.1302]],[[79.4836,9.13352],[79.4836,9.13352]],[[79.47394,9.13526],[79.47394,9.13526]],[[93.61255,8.48535],[93.61255,8.48535]],[[93.60355,8.48718],[93.60355,8.48718]],[[93.62928,8.48702],[93.62928,8.48702]],[[79.46807,9.14062],[79.46807,9.14062]],[[93.62852,8.48793],[93.62852,8.48793]],[[79.45435,9.14372],[79.45435,9.14372]],[[79.45643,9.14704],[79.45643,9.14704]],[[79.45377,9.14858],[79.45377,9.14858]],[[93.60578,8.49828],[93.60578,8.49828]],[[79.44502,9.15107],[79.44502,9.15107]],[[93.61411,8.50205],[93.61411,8.50205]],[[93.61441,8.50243],[93.61441,8.50243]],[[79.44582,9.15793],[79.44582,9.15793]],[[93.62439,8.50296],[93.62439,8.50296]],[[93.62419,8.50325],[93.62419,8.50325]],[[78.75488,9.15415],[78.75488,9.15415]],[[93.61454,8.50437],[93.61454,8.50437]],[[93.61497,8.50464],[93.61497,8.50464]],[[93.61439,8.50482],[93.61439,8.50482]],[[93.61462,8.50526],[93.61462,8.50526]],[[93.61406,8.50548],[93.61406,8.50548]],[[93.6231,8.50494],[93.6231,8.50494]],[[78.73206,9.15442],[78.73206,9.15442]],[[78.69545,9.15057],[78.69545,9.15057]],[[78.75198,9.15539],[78.75198,9.15539]],[[93.62215,8.5079],[93.62215,8.5079]],[[78.6985,9.15801],[78.6985,9.15801]],[[78.82356,9.16604],[78.82356,9.16604]],[[93.60826,8.52239],[93.60826,8.52239]],[[93.60998,8.52297],[93.60998,8.52297]],[[78.82707,9.16733],[78.82707,9.16733]],[[93.61089,8.52628],[93.61089,8.52628]],[[93.60893,8.52803],[93.60893,8.52803]],[[93.61966,8.5275],[93.61966,8.5275]],[[93.61548,8.52945],[93.61548,8.52945]],[[93.61371,8.53041],[93.61371,8.53041]],[[78.96968,9.18216],[78.96968,9.18216]],[[93.613,8.53267],[93.613,8.53267]],[[78.91048,9.186],[78.91048,9.186]],[[78.96983,9.18619],[78.96983,9.18619]],[[78.93735,9.18248],[78.89743,9.17939],[78.93735,9.18248]],[[78.70425,9.18408],[78.70425,9.18408]],[[93.61215,8.53674],[93.61215,8.53674]],[[93.60247,8.53861],[93.60247,8.53861]],[[93.61258,8.53844],[93.61258,8.53844]],[[93.60054,8.54963],[93.60054,8.54963]],[[93.61013,8.54935],[93.61013,8.54935]],[[93.60938,8.55053],[93.60938,8.55053]],[[93.5999,8.55791],[93.5999,8.55791]],[[93.59998,8.5582],[93.59998,8.5582]],[[93.60007,8.55853],[93.60007,8.55853]],[[93.59953,8.55844],[93.59953,8.55844]],[[93.61114,8.55811],[93.61114,8.55811]],[[93.61036,8.55831],[93.61036,8.55831]],[[93.61099,8.55835],[93.61099,8.55835]],[[79.0771,9.20222],[79.08746,9.19196],[79.05789,9.19621],[79.0771,9.20222]],[[93.60075,8.56148],[93.60075,8.56148]],[[93.6006,8.56165],[93.6006,8.56165]],[[93.61083,8.56084],[93.61083,8.56084]],[[79.1407,9.21328],[79.1407,9.21328]],[[93.60126,8.56312],[93.60126,8.56312]],[[79.12398,9.21429],[79.12398,9.21429]],[[93.60069,8.56378],[93.60069,8.56378]],[[93.60319,8.56336],[93.60319,8.56336]],[[93.60305,8.56465],[93.60305,8.56465]],[[93.61054,8.56387],[93.61054,8.56387]],[[93.6033,8.56542],[93.6033,8.56542]],[[79.12555,9.21742],[79.12555,9.21742]],[[79.12312,9.21618],[79.12312,9.21618]],[[93.61118,8.56614],[93.61118,8.56614]],[[93.60345,8.56679],[93.60345,8.56679]],[[93.60299,8.56709],[93.60299,8.56709]],[[93.6073,8.56995],[93.6073,8.56995]],[[93.60759,8.57025],[93.60759,8.57025]],[[93.60762,8.57072],[93.60762,8.57072]],[[93.60719,8.57321],[93.60719,8.57321]],[[93.60261,8.574],[93.60261,8.574]],[[93.60653,8.57369],[93.60653,8.57369]],[[93.60201,8.5741],[93.60201,8.5741]],[[93.60306,8.57473],[93.60306,8.57473]],[[93.60581,8.57446],[93.60581,8.57446]],[[93.60561,8.57475],[93.60561,8.57475]],[[93.60294,8.57504],[93.60294,8.57504]],[[93.60522,8.575],[93.60522,8.575]],[[93.60288,8.57542],[93.60288,8.57542]],[[93.60281,8.57617],[93.60281,8.57617]],[[93.60265,8.57645],[93.60265,8.57645]],[[93.60592,8.57372],[93.63221,8.46816],[93.61565,8.46398],[93.61336,8.42371],[93.60592,8.57372]],[[93.60858,8.58117],[93.60858,8.58117]],[[93.59851,8.58287],[93.59851,8.58287]],[[79.23573,9.24348],[79.23573,9.24348]],[[79.20045,9.25068],[79.21718,9.24756],[79.17957,9.23783],[79.20045,9.25068]],[[92.86334,8.8341],[92.86334,8.8341]],[[92.85958,8.84102],[92.84767,8.81655],[92.85958,8.84102]],[[92.78603,9.245],[92.81767,9.21199],[92.82734,9.14187],[92.80073,9.12121],[92.72918,9.12472],[92.71969,9.21853],[92.76517,9.21868],[92.77422,9.25877],[92.78603,9.245]],[[73.63074,10.06792],[73.63074,10.06792]],[[73.63178,10.06875],[73.63178,10.06875]],[[73.63313,10.06895],[73.63313,10.06895]],[[73.63438,10.07122],[73.63438,10.07122]],[[73.63087,10.07286],[73.63087,10.07286]],[[73.62794,10.07342],[73.62794,10.07342]],[[73.64765,10.07212],[73.64018,10.05763],[73.65091,10.09969],[73.64765,10.07212]],[[73.65242,10.1083],[73.65242,10.1083]],[[72.28378,10.04079],[72.28378,10.04079]],[[73.66025,10.1539],[73.66191,10.13191],[73.66025,10.1539]],[[72.3351,10.09705],[72.3351,10.09705]],[[72.33215,10.12984],[72.33215,10.12984]],[[72.64398,10.57805],[72.6176,10.54175],[72.64398,10.57805]],[[73.66796,10.81727],[73.69805,10.81614],[73.66796,10.81727]],[[72.53411,10.78114],[72.53411,10.78114]],[[72.16854,10.81468],[72.16854,10.81468]],[[72.2041,10.87825],[72.17266,10.8198],[72.2041,10.87825]],[[72.28868,10.94625],[72.28868,10.94625]],[[72.32534,10.95005],[72.32534,10.95005]],[[72.333,10.95166],[72.333,10.95166]],[[72.33467,10.95489],[72.33467,10.95489]],[[72.3351,10.95611],[72.3351,10.95611]],[[72.72012,11.11369],[72.7291,11.13604],[72.72012,11.11369]],[[72.76195,11.18259],[72.78629,11.25751],[72.76195,11.18259]],[[92.51836,10.90084],[92.53321,10.86595],[92.5328,10.8891],[92.56131,10.86466],[92.56595,10.81239],[92.5484,10.80954],[92.58715,10.78811],[92.5981,10.67918],[92.53904,10.61809],[92.56989,10.57879],[92.51467,10.51126],[92.43075,10.54961],[92.38854,10.53137],[92.41874,10.61847],[92.38178,10.66966],[92.37455,10.78534],[92.39764,10.74813],[92.4182,10.77146],[92.39352,10.77695],[92.45912,10.84555],[92.45428,10.86648],[92.49635,10.89698],[92.51127,10.87287],[92.477,10.86202],[92.50456,10.86269],[92.51836,10.90084]],[[92.62268,10.92579],[92.62268,10.92579]],[[92.61759,10.93359],[92.60207,10.93604],[92.61759,10.93359]],[[92.60355,10.94131],[92.60355,10.94131]],[[92.60839,10.94209],[92.60839,10.94209]],[[92.60672,10.94283],[92.60672,10.94283]],[[92.59855,10.94137],[92.59855,10.94137]],[[92.60343,10.94636],[92.60343,10.94636]],[[92.60055,10.95093],[92.60055,10.95093]],[[92.21924,10.98577],[92.21089,10.97481],[92.21924,10.98577]],[[92.66776,10.98466],[92.66776,10.98466]],[[73.00828,11.46952],[72.99856,11.4963],[73.00828,11.46952]],[[92.73153,11.14937],[92.73153,11.14937]],[[92.67618,11.18442],[92.67618,11.18442]],[[92.67248,11.1949],[92.67248,11.1949]],[[72.19019,11.59881],[72.19019,11.59881]],[[92.70507,11.27772],[92.68744,11.24205],[92.70507,11.27772]],[[72.71208,11.68626],[72.716,11.70314],[72.71208,11.68626]],[[92.7223,11.33303],[92.70993,11.30115],[92.69703,11.30829],[92.7223,11.33303]],[[92.54744,11.39069],[92.54744,11.39069]],[[92.56266,11.39681],[92.56266,11.39681]],[[92.24042,11.51613],[92.24042,11.51613]],[[92.25724,11.51526],[92.25724,11.51526]],[[92.23981,11.51715],[92.23981,11.51715]],[[92.27028,11.52007],[92.27028,11.52007]],[[92.20772,11.53236],[92.20772,11.53236]],[[92.20594,11.53381],[92.20594,11.53381]],[[92.20719,11.53546],[92.20719,11.53546]],[[92.56086,11.51387],[92.56086,11.51387]],[[92.61259,11.50638],[92.61259,11.50638]],[[92.64364,11.51337],[92.64364,11.51337]],[[92.63621,11.51591],[92.67244,11.48501],[92.68375,11.43201],[92.63645,11.40214],[92.65686,11.4071],[92.69067,11.37466],[92.59765,11.34502],[92.57959,11.36959],[92.58716,11.39771],[92.62107,11.40375],[92.61173,11.47623],[92.63621,11.51591]],[[92.58825,11.53045],[92.58825,11.53045]],[[92.6163,11.52801],[92.6163,11.52801]],[[92.59339,11.53109],[92.59339,11.53109]],[[92.6159,11.53146],[92.6159,11.53146]],[[92.6308,11.53303],[92.6308,11.53303]],[[92.55546,11.54001],[92.55546,11.54001]],[[92.55874,11.54106],[92.56544,11.51663],[92.55874,11.54106]],[[92.60106,11.53762],[92.60106,11.53762]],[[92.58313,11.53478],[92.58313,11.53478]],[[92.19704,11.5774],[92.19704,11.5774]],[[92.26871,11.57308],[92.26871,11.57308]],[[92.19851,11.57895],[92.19851,11.57895]],[[92.19678,11.58089],[92.19678,11.58089]],[[92.54369,11.55389],[92.54369,11.55389]],[[92.6278,11.54253],[92.6278,11.54253]],[[92.54141,11.55779],[92.54141,11.55779]],[[92.19889,11.58793],[92.19889,11.58793]],[[92.56216,11.5573],[92.56216,11.5573]],[[92.20041,11.59085],[92.20041,11.59085]],[[92.5631,11.55979],[92.5631,11.55979]],[[92.56738,11.55936],[92.56738,11.55936]],[[92.57035,11.5595],[92.57035,11.5595]],[[92.57431,11.56016],[92.57431,11.56016]],[[92.63184,11.55736],[92.63184,11.55736]],[[92.26477,11.58987],[92.26477,11.58987]],[[92.59876,11.56002],[92.59876,11.56002]],[[92.22281,11.59338],[92.22281,11.59338]],[[92.61412,11.5564],[92.61052,11.53222],[92.61412,11.5564]],[[92.22011,11.59452],[92.26845,11.58645],[92.25958,11.51728],[92.20954,11.53441],[92.20322,11.58648],[92.22011,11.59452]],[[92.22877,11.59397],[92.22877,11.59397]],[[92.60864,11.55621],[92.60864,11.55621]],[[92.52956,11.56876],[92.52956,11.56876]],[[92.5653,11.56723],[92.5653,11.56723]],[[92.57443,11.56231],[92.57443,11.56231]],[[92.56975,11.57262],[92.56975,11.57262]],[[92.52834,11.57763],[92.52834,11.57763]],[[92.56978,11.57858],[92.56978,11.57858]],[[92.56899,11.57938],[92.56899,11.57938]],[[92.59304,11.57456],[92.5949,11.53319],[92.59304,11.57456]],[[92.57746,11.58236],[92.57746,11.58236]],[[92.59996,11.5865],[92.59996,11.5865]],[[92.61132,11.58821],[92.61554,11.56582],[92.60079,11.56755],[92.61132,11.58821]],[[92.59286,11.59041],[92.59286,11.59041]],[[92.55244,11.59383],[92.55244,11.59383]],[[92.54017,11.60503],[92.57158,11.58779],[92.52995,11.55482],[92.54017,11.60503]],[[92.68997,11.60818],[92.68997,11.60818]],[[92.68631,11.62969],[92.68631,11.62969]],[[92.68781,11.63414],[92.68781,11.63414]],[[92.75568,11.63655],[92.75568,11.63655]],[[92.7551,11.63641],[92.7551,11.63641]],[[92.75396,11.63708],[92.75396,11.63708]],[[92.68024,11.64823],[92.68024,11.64823]],[[92.69747,11.66393],[92.69747,11.66393]],[[92.73274,11.68173],[92.73274,11.68173]],[[92.73326,11.68249],[92.73326,11.68249]],[[92.76262,11.67287],[92.76262,11.67287]],[[92.72232,11.68875],[92.72232,11.68875]],[[92.58676,11.70139],[92.58676,11.70139]],[[92.58612,11.70393],[92.58612,11.70393]],[[92.58508,11.70392],[92.58508,11.70392]],[[92.58302,11.70817],[92.58302,11.70817]],[[92.58422,11.70835],[92.58422,11.70835]],[[93.08508,11.7831],[93.08508,11.7831]],[[93.07241,11.83365],[93.07241,11.83365]],[[93.072,11.83763],[93.072,11.83763]],[[93.01223,11.85164],[93.07083,11.83239],[93.04557,11.80972],[93.01223,11.85164]],[[92.60349,11.92917],[92.60349,11.92917]],[[92.72225,11.95133],[92.72225,11.95133]],[[92.60593,11.96623],[92.60593,11.96623]],[[92.72816,11.94655],[92.72816,11.94655]],[[92.73802,11.96411],[92.73802,11.96411]],[[92.59646,11.97683],[92.59455,11.92588],[92.59646,11.97683]],[[92.74224,11.96522],[92.74224,11.96522]],[[92.58303,11.98249],[92.58303,11.98249]],[[92.99517,11.94581],[92.99517,11.94581]],[[92.60039,11.98173],[92.60039,11.98173]],[[92.76606,11.96774],[92.75924,11.94547],[92.73582,11.95597],[92.76606,11.96774]],[[92.74146,11.99663],[92.75234,11.98],[92.73201,11.98265],[92.74146,11.99663]],[[92.77198,12.01893],[92.77198,12.01893]],[[92.97159,12.03543],[92.97159,12.03543]],[[92.99006,12.03762],[92.99006,12.03762]],[[92.97763,12.04194],[92.97763,12.04194]],[[92.97735,12.04227],[92.97735,12.04227]],[[92.9769,12.04239],[92.9769,12.04239]],[[92.97437,12.04281],[92.97437,12.04281]],[[92.9763,12.04267],[92.9763,12.04267]],[[92.97525,12.04292],[92.97525,12.04292]],[[92.97589,12.04277],[92.97589,12.04277]],[[92.97489,12.04311],[92.97489,12.04311]],[[92.97862,12.04315],[92.97862,12.04315]],[[92.97806,12.04283],[92.97806,12.04283]],[[92.97893,12.04365],[92.97893,12.04365]],[[92.9786,12.0437],[92.9786,12.0437]],[[92.97831,12.04396],[92.97831,12.04396]],[[92.74665,12.05487],[92.78224,12.04534],[92.77276,12.02255],[92.73482,12.03459],[92.72785,12.05453],[92.74665,12.05487]],[[92.97883,12.04398],[92.97883,12.04398]],[[92.96401,12.05009],[92.97602,12.01956],[92.97866,12.04203],[93.01645,12.02101],[93.00837,12.00023],[93.05358,11.89923],[93.04117,11.88305],[92.9922,11.93494],[93.01468,11.93913],[93.0064,11.95521],[92.97602,11.9452],[92.92295,11.99844],[92.96401,12.05009]],[[92.74151,12.06908],[92.75526,12.06029],[92.74151,12.06908]],[[92.79855,12.07663],[92.79855,12.07663]],[[92.78567,12.07355],[92.78567,12.07355]],[[92.792,12.07873],[92.792,12.07873]],[[92.79114,12.07902],[92.79114,12.07902]],[[92.79177,12.07879],[92.79177,12.07879]],[[92.96889,12.0659],[92.96889,12.0659]],[[92.96473,12.06653],[92.96473,12.06653]],[[93.01217,12.06528],[93.01217,12.06528]],[[93.00854,12.07082],[93.00854,12.07082]],[[92.79983,12.08923],[92.79983,12.08923]],[[93.00743,12.07238],[93.00743,12.07238]],[[93.05253,12.07335],[93.05253,12.07335]],[[93.05439,12.07363],[93.05439,12.07363]],[[93.07719,12.07692],[93.07719,12.07692]],[[93.07854,12.07714],[93.07854,12.07714]],[[93.08021,12.07687],[93.08021,12.07687]],[[93.08231,12.07883],[93.08231,12.07883]],[[92.9568,12.09191],[92.9568,12.09191]],[[92.73939,12.11051],[92.73939,12.11051]],[[93.03434,12.10264],[93.03434,12.10264]],[[92.98997,12.10979],[92.9956,12.04414],[92.95683,12.07371],[92.95799,12.10731],[92.98997,12.10979]],[[93.0,12.10902],[93.0,12.10902]],[[92.97755,12.10915],[92.97755,12.10915]],[[92.9921,12.10951],[92.9921,12.10951]],[[92.97328,12.11617],[92.97328,12.11617]],[[92.94746,12.11654],[92.95068,12.08061],[92.94746,12.11654]],[[92.96043,12.11812],[92.96043,12.11812]],[[92.96084,12.11938],[92.96084,12.11938]],[[92.95665,12.12748],[92.95665,12.12748]],[[92.75411,12.14272],[92.75411,12.14272]],[[92.95609,12.13131],[92.95609,12.13131]],[[92.85137,12.14122],[92.85137,12.14122]],[[92.85184,12.14164],[92.85184,12.14164]],[[92.71337,12.17056],[92.71337,12.17056]],[[92.75903,12.16627],[92.75903,12.16627]],[[93.00525,12.1481],[93.00525,12.1481]],[[92.98779,12.15049],[92.98779,12.15049]],[[92.76017,12.17172],[92.76017,12.17172]],[[93.00592,12.15276],[93.00592,12.15276]],[[92.9844,12.15426],[92.9844,12.15426]],[[92.71971,12.17994],[92.71971,12.17994]],[[93.01362,12.15696],[93.01362,12.15696]],[[92.99075,12.1584],[93.00168,12.1112],[92.9542,12.13945],[92.99075,12.1584]],[[92.75897,12.1798],[92.75897,12.1798]],[[93.01304,12.1576],[93.01304,12.1576]],[[93.12495,12.1521],[93.11242,12.12925],[93.12495,12.1521]],[[92.72904,12.18437],[92.72904,12.18437]],[[93.01533,12.16394],[93.01533,12.16394]],[[93.02843,12.16659],[93.05491,12.06665],[93.04228,12.04258],[93.00738,12.07351],[92.99748,12.12892],[93.02843,12.16659]],[[92.86595,12.18211],[92.86595,12.18211]],[[92.70682,12.19649],[92.70682,12.19649]],[[92.84808,12.19565],[92.84808,12.19565]],[[92.68171,12.21462],[92.68171,12.21462]],[[92.69627,12.23893],[92.70874,12.15385],[92.71937,12.17972],[92.75655,12.16355],[92.72662,12.09629],[92.73702,12.05517],[92.70129,12.04141],[92.72841,12.04776],[92.73808,12.01234],[92.77041,11.99955],[92.72189,11.99087],[92.71369,11.82794],[92.69843,11.81451],[92.7009,11.82937],[92.65574,11.83468],[92.6913,11.81423],[92.67695,11.78398],[92.69538,11.81085],[92.70562,11.79385],[92.74466,11.93232],[92.78326,11.93623],[92.78764,11.90188],[92.75606,11.70475],[92.73901,11.69028],[92.68494,11.71103],[92.70695,11.67225],[92.66124,11.65248],[92.6912,11.62247],[92.67409,11.60952],[92.68779,11.62743],[92.69415,11.60697],[92.69468,11.65102],[92.72821,11.65822],[92.71438,11.67844],[92.75339,11.66697],[92.71024,11.48228],[92.64837,11.51887],[92.64625,11.5724],[92.62017,11.56125],[92.60211,11.60496],[92.6433,11.63712],[92.6001,11.64727],[92.59101,11.73287],[92.56017,11.69138],[92.54977,11.80201],[92.52953,11.79418],[92.54969,11.81036],[92.53381,11.80593],[92.54428,11.84153],[92.52484,11.8087],[92.50622,11.82397],[92.52024,11.89862],[92.56369,11.94767],[92.60821,11.85008],[92.61584,11.93452],[92.59867,11.90449],[92.5929,11.91739],[92.62731,12.04142],[92.62386,12.10746],[92.66191,12.21688],[92.65273,12.18183],[92.67354,12.21762],[92.67529,12.18883],[92.69627,12.23893]],[[92.7208,11.58561],[92.72957,11.56646],[92.73976,11.59139],[92.72574,11.60397],[92.7208,11.58561]],[[92.87111,12.22887],[92.87111,12.22887]],[[92.73483,12.23959],[92.73066,12.21266],[92.73796,12.2329],[92.76159,12.22407],[92.76411,12.18325],[92.72077,12.19504],[92.73483,12.23959]],[[93.08231,12.07883],[93.04798,12.11408],[93.06647,12.12111],[93.03569,12.13491],[93.06986,12.21168],[93.09047,12.18448],[93.08586,12.12171],[93.10132,12.12964],[93.08231,12.07883]],[[92.93434,12.22591],[92.93271,12.19626],[92.93434,12.22591]],[[92.69831,12.24355],[92.69831,12.24355]],[[93.01997,12.22324],[93.01997,12.22324]],[[92.73174,12.25186],[92.73174,12.25186]],[[92.88133,12.23918],[92.88133,12.23918]],[[92.72288,12.25449],[92.72288,12.25449]],[[92.7168,12.25622],[92.7168,12.25622]],[[92.91199,12.24362],[92.91199,12.24362]],[[92.86582,12.25003],[92.86583,12.23618],[92.86582,12.25003]],[[92.88023,12.24576],[92.88023,12.24576]],[[92.91149,12.24716],[92.91149,12.24716]],[[92.90649,12.24867],[92.90649,12.24867]],[[92.91136,12.24979],[92.91136,12.24979]],[[92.9073,12.25263],[92.9073,12.25263]],[[92.90491,12.25413],[92.90491,12.25413]],[[92.90615,12.25309],[92.90615,12.25309]],[[92.86334,12.25896],[92.86334,12.25896]],[[92.91807,12.25383],[92.91807,12.25383]],[[92.90026,12.25758],[92.90026,12.25758]],[[92.91813,12.25592],[92.91813,12.25592]],[[92.91981,12.2545],[92.91981,12.2545]],[[92.90854,12.25689],[92.90854,12.25689]],[[92.90249,12.25687],[92.90249,12.25687]],[[92.91327,12.26049],[92.91327,12.26049]],[[92.91663,12.26111],[92.91663,12.26111]],[[92.9021,12.26363],[92.9021,12.26363]],[[92.9152,12.26272],[92.9152,12.26272]],[[92.90067,12.26408],[92.9128,12.2202],[92.88797,12.2278],[92.87934,12.20892],[92.86931,12.24269],[92.90067,12.26408]],[[92.74862,12.28788],[92.73556,12.24899],[92.74862,12.28788]],[[92.73521,12.28134],[92.73521,12.28134]],[[92.75131,12.29119],[92.75131,12.29119]],[[92.88914,12.27742],[92.88914,12.27742]],[[92.7516,12.29265],[92.7516,12.29265]],[[92.76642,12.27237],[92.76095,12.2938],[92.76642,12.27237]],[[92.71044,12.29706],[92.71004,12.22968],[92.71044,12.29706]],[[93.10434,12.26401],[93.10105,12.20063],[93.09737,12.23754],[93.07706,12.2214],[93.06203,12.23423],[93.07008,12.2602],[93.091,12.24225],[93.10434,12.26401]],[[92.76842,12.28863],[92.76842,12.28863]],[[92.76404,12.29664],[92.76404,12.29664]],[[92.8841,12.29035],[92.8841,12.29035]],[[93.02897,12.27794],[93.02897,12.27794]],[[92.89122,12.29811],[92.89122,12.29811]],[[92.88174,12.29715],[92.88174,12.29715]],[[92.8653,12.30597],[92.8653,12.30597]],[[92.81047,12.31295],[92.85452,12.28149],[92.84826,12.30035],[92.86784,12.30236],[92.8907,12.26852],[92.85783,12.24519],[92.88239,12.19647],[92.82803,12.2029],[92.84071,12.21904],[92.80449,12.23201],[92.83419,12.21939],[92.85489,12.1624],[92.8053,12.1707],[92.82606,12.15433],[92.80547,12.13097],[92.81515,12.10841],[92.78664,12.10394],[92.79201,12.08365],[92.76565,12.06554],[92.76345,12.09943],[92.75194,12.07515],[92.73787,12.08641],[92.76967,12.2304],[92.74285,12.25139],[92.78454,12.27906],[92.76997,12.31157],[92.81047,12.31295]],[[92.85831,12.31104],[92.85831,12.31104]],[[92.93349,12.31101],[92.92466,12.23177],[92.90128,12.29073],[92.92962,12.28646],[92.93349,12.31101]],[[93.07065,12.31505],[93.07065,12.31505]],[[92.85791,12.33483],[92.89563,12.31968],[92.86066,12.31425],[92.85791,12.33483]],[[92.90596,12.33784],[92.90596,12.33784]],[[92.91264,12.3395],[92.91576,12.35546],[92.91264,12.3395]],[[92.8428,12.39516],[92.8428,12.39516]],[[93.85312,12.30022],[93.86721,12.27896],[93.8433,12.27018],[93.85312,12.30022]],[[92.89715,12.39612],[92.89715,12.39612]],[[92.84171,12.40328],[92.84171,12.40328]],[[92.86497,12.40857],[92.86497,12.40857]],[[92.88753,12.40807],[92.8846,12.37689],[92.84331,12.3988],[92.88753,12.40807]],[[92.87534,12.40849],[92.87534,12.40849]],[[92.88846,12.41304],[92.88846,12.41304]],[[92.89885,12.40908],[92.89885,12.40908]],[[92.88883,12.41427],[92.88883,12.41427]],[[92.90214,12.4133],[92.90214,12.4133]],[[92.88819,12.41477],[92.88819,12.41477]],[[92.8621,12.41258],[92.8621,12.41258]],[[92.83246,12.42692],[92.85644,12.41394],[92.83246,12.42692]],[[92.903,12.42154],[92.903,12.42154]],[[92.95618,12.43462],[92.91934,12.36374],[92.92985,12.41517],[92.95618,12.43462]],[[92.91551,12.4412],[92.91551,12.4412]],[[92.68347,12.55408],[92.68026,12.50674],[92.66354,12.52844],[92.68347,12.55408]],[[92.70099,12.63761],[92.70099,12.63761]],[[92.70276,12.64006],[92.70276,12.64006]],[[92.70037,12.64036],[92.70037,12.64036]],[[92.7025,12.64367],[92.7025,12.64367]],[[92.72686,12.65537],[92.72686,12.65537]],[[92.72546,12.65617],[92.72546,12.65617]],[[92.78086,12.64614],[92.78086,12.64614]],[[92.72459,12.68325],[92.72459,12.68325]],[[92.71457,12.68858],[92.71457,12.68858]],[[92.72387,12.69151],[92.72387,12.69151]],[[92.72261,12.69204],[92.72261,12.69204]],[[92.7742,12.67358],[92.78085,12.68764],[92.7742,12.67358]],[[92.73194,12.70306],[92.73194,12.70306]],[[92.78295,12.71733],[92.78295,12.71733]],[[92.78135,12.71804],[92.78135,12.71804]],[[74.67536,13.19307],[74.67536,13.19307]],[[74.67533,13.19448],[74.67533,13.19448]],[[74.67281,13.19594],[74.67281,13.19594]],[[74.67423,13.19692],[74.67423,13.19692]],[[74.6715,13.19761],[74.6715,13.19761]],[[74.67055,13.19873],[74.67055,13.19873]],[[92.7377,12.7335],[92.7377,12.7335]],[[92.7242,12.73605],[92.7242,12.73605]],[[92.72609,12.75172],[92.72609,12.75172]],[[92.96851,12.74042],[92.96851,12.74042]],[[92.96781,12.74297],[92.96781,12.74297]],[[92.65476,12.76953],[92.65476,12.76953]],[[92.71674,12.77369],[92.71674,12.77369]],[[92.71651,12.77523],[92.71651,12.77523]],[[74.72112,13.24241],[74.72112,13.24241]],[[92.9603,12.75592],[92.9603,12.75592]],[[92.95492,12.75774],[92.95492,12.75774]],[[92.9589,12.75753],[92.9589,12.75753]],[[92.71527,12.7831],[92.71527,12.7831]],[[92.72086,12.77881],[92.72353,12.76508],[92.72086,12.77881]],[[92.94067,12.76983],[92.94067,12.76983]],[[92.71718,12.78972],[92.71718,12.78972]],[[92.94665,12.77121],[92.94665,12.77121]],[[92.71763,12.79449],[92.71763,12.79449]],[[92.72056,12.79516],[92.72056,12.79516]],[[92.71461,12.79487],[92.71461,12.79487]],[[92.71576,12.79833],[92.71576,12.79833]],[[92.71624,12.80194],[92.71624,12.80194]],[[74.72118,13.27248],[74.72118,13.27248]],[[74.69975,13.27924],[74.69975,13.27924]],[[74.70037,13.28143],[74.70037,13.28143]],[[92.70751,12.83005],[92.72459,12.74697],[92.7113,12.72053],[92.69407,12.80095],[92.70751,12.83005]],[[92.72437,12.83218],[92.72437,12.83218]],[[92.73127,12.85681],[92.73127,12.85681]],[[92.76318,12.85137],[92.76572,12.83797],[92.76318,12.85137]],[[92.72627,12.86541],[92.70804,12.83474],[92.72627,12.86541]],[[74.69089,13.33296],[74.69089,13.33296]],[[74.69044,13.33289],[74.69044,13.33289]],[[92.77995,12.85756],[92.77861,12.82746],[92.77995,12.85756]],[[74.68926,13.3375],[74.68926,13.3375]],[[92.76529,12.86988],[92.76571,12.85617],[92.76529,12.86988]],[[74.6814,13.34455],[74.6814,13.34455]],[[74.68216,13.34475],[74.68216,13.34475]],[[74.68328,13.3461],[74.68328,13.3461]],[[92.75736,12.87874],[92.75736,12.87874]],[[74.6817,13.3469],[74.6817,13.3469]],[[74.68229,13.34817],[74.68229,13.34817]],[[74.68289,13.36011],[74.68289,13.36011]],[[74.68258,13.36043],[74.68258,13.36043]],[[92.83103,12.88532],[92.83103,12.88532]],[[92.83181,12.88526],[92.83181,12.88526]],[[74.68171,13.36092],[74.68171,13.36092]],[[92.83393,12.88642],[92.83393,12.88642]],[[92.78828,12.89323],[92.78828,12.89323]],[[74.67507,13.37561],[74.67507,13.37561]],[[74.67388,13.37693],[74.67388,13.37693]],[[74.67481,13.37702],[74.67481,13.37702]],[[74.67507,13.37727],[74.67507,13.37727]],[[92.89176,12.89757],[92.89176,12.89757]],[[92.7543,12.91328],[92.74836,12.89261],[92.7543,12.91328]],[[74.67243,13.3816],[74.67243,13.3816]],[[74.68621,13.37855],[74.68621,13.37855]],[[92.8795,12.90576],[92.8795,12.90576]],[[92.76829,12.9172],[92.76829,12.9172]],[[92.79313,12.91235],[92.79469,12.89346],[92.77371,12.90593],[92.79313,12.91235]],[[92.87953,12.90741],[92.87953,12.90741]],[[92.86439,12.91266],[92.86439,12.91266]],[[92.67328,12.93292],[92.67328,12.93292]],[[92.67226,12.9328],[92.67226,12.9328]],[[92.76606,12.92367],[92.76606,12.92367]],[[92.77398,12.93222],[92.77226,12.91861],[92.77398,12.93222]],[[92.93475,12.91992],[92.93475,12.91992]],[[92.76161,12.93645],[92.76161,12.93645]],[[92.89749,12.92681],[92.92112,12.91533],[92.90691,12.88548],[92.94012,12.85725],[92.92604,12.80356],[92.93336,12.83905],[92.95403,12.80675],[92.92969,12.77465],[92.97956,12.71089],[92.95706,12.6252],[92.93452,12.61772],[92.9572,12.62079],[92.96692,12.50019],[92.92202,12.46569],[92.91368,12.49612],[92.90908,12.46992],[92.95662,12.47433],[92.91229,12.44624],[92.91037,12.40557],[92.88118,12.47049],[92.87512,12.44677],[92.84464,12.46878],[92.83526,12.49708],[92.85288,12.50537],[92.81891,12.4865],[92.89674,12.41925],[92.82129,12.4342],[92.81794,12.45172],[92.79639,12.4379],[92.78993,12.47958],[92.77434,12.46915],[92.79594,12.46535],[92.78905,12.43573],[92.82936,12.42837],[92.80335,12.40491],[92.83993,12.40368],[92.82332,12.37709],[92.84913,12.38573],[92.84671,12.36576],[92.89558,12.33877],[92.83297,12.33535],[92.85948,12.32197],[92.83167,12.30275],[92.77718,12.3146],[92.77213,12.33271],[92.75126,12.29742],[92.73547,12.30706],[92.74772,12.36423],[92.72155,12.30114],[92.69553,12.39712],[92.70684,12.59513],[92.68434,12.60825],[92.70247,12.60469],[92.71769,12.64349],[92.72353,12.61668],[92.72722,12.63586],[92.74723,12.62026],[92.73162,12.65282],[92.77192,12.66999],[92.77843,12.58376],[92.78832,12.72612],[92.7816,12.73971],[92.7616,12.72281],[92.77564,12.73394],[92.78527,12.70423],[92.7705,12.67651],[92.73712,12.67208],[92.72202,12.82469],[92.72992,12.83615],[92.73518,12.80878],[92.74531,12.84256],[92.75341,12.8192],[92.7727,12.84256],[92.78363,12.76227],[92.79039,12.88871],[92.82285,12.89594],[92.83814,12.86612],[92.8481,12.87616],[92.82746,12.81268],[92.89749,12.92681]],[[92.67727,12.94653],[92.67727,12.94653]],[[92.67056,12.94951],[92.67056,12.94951]],[[92.67558,12.94908],[92.67558,12.94908]],[[92.66729,12.9513],[92.66729,12.9513]],[[92.6676,12.95222],[92.6676,12.95222]],[[92.67085,12.95182],[92.67085,12.95182]],[[92.89042,12.93276],[92.89042,12.93276]],[[92.66937,12.95222],[92.66937,12.95222]],[[92.87482,12.93489],[92.88472,12.92289],[92.86587,12.91746],[92.87482,12.93489]],[[92.66926,12.95401],[92.66926,12.95401]],[[92.89052,12.93846],[92.89052,12.93846]],[[92.90038,12.94017],[92.90038,12.94017]],[[92.90038,12.94017],[92.90038,12.94017]],[[92.90068,12.94226],[92.90068,12.94226]],[[92.89887,12.94231],[92.89887,12.94231]],[[92.87878,12.96118],[92.87878,12.96118]],[[92.88324,12.96517],[92.88324,12.96517]],[[92.88278,12.96588],[92.88278,12.96588]],[[74.66548,13.45213],[74.66548,13.45213]],[[92.69482,12.99135],[92.71975,12.97799],[92.72066,12.8896],[92.6996,12.84023],[92.67379,12.836],[92.68808,12.81733],[92.66869,12.78394],[92.64763,12.85956],[92.67003,12.96432],[92.69482,12.99135]],[[92.88652,12.97895],[92.88652,12.97895]],[[92.88843,12.98141],[92.88843,12.98141]],[[92.89359,12.98416],[92.89359,12.98416]],[[92.97747,12.9862],[92.97747,12.9862]],[[92.83126,13.00003],[92.83126,13.00003]],[[92.9739,12.99365],[92.9739,12.99365]],[[92.97328,12.99409],[92.97328,12.99409]],[[92.78707,13.01084],[92.78707,13.01084]],[[92.7847,13.01363],[92.7847,13.01363]],[[92.97052,12.99929],[92.97052,12.99929]],[[93.00736,12.99919],[92.98124,12.93153],[92.9532,12.93428],[92.96682,12.94789],[92.95112,12.98023],[93.00736,12.99919]],[[92.98859,13.00152],[92.98859,13.00152]],[[92.94928,13.0186],[92.94928,13.0186]],[[92.93112,13.02748],[92.93112,13.02748]],[[92.92984,13.02535],[92.9416,12.99417],[92.91347,13.01098],[92.92984,13.02535]],[[92.78552,13.05522],[92.78552,13.05522]],[[92.78809,13.06079],[92.78809,13.06079]],[[92.93194,13.04866],[92.93194,13.04866]],[[92.79493,13.07527],[92.79493,13.07527]],[[92.9169,13.06003],[92.9169,13.06003]],[[92.91414,13.06725],[92.91414,13.06725]],[[92.91182,13.07415],[92.91182,13.07415]],[[92.72762,13.08991],[92.72762,13.08991]],[[92.71939,13.09869],[92.69959,13.07025],[92.69635,13.09821],[92.71939,13.09869]],[[92.79319,13.09291],[92.79319,13.09291]],[[92.79303,13.09404],[92.79303,13.09404]],[[92.84033,13.14292],[92.84033,13.14292]],[[92.80864,13.14807],[92.80864,13.14807]],[[92.80687,13.15222],[92.80687,13.15222]],[[92.80439,13.15364],[92.80439,13.15364]],[[92.8096,13.16293],[92.8096,13.16293]],[[92.81008,13.16712],[92.81008,13.16712]],[[92.80957,13.16919],[92.80957,13.16919]],[[92.79425,13.16755],[92.79425,13.16755]],[[92.79225,13.17158],[92.79225,13.17158]],[[74.65137,13.65518],[74.65137,13.65518]],[[74.65137,13.6558],[74.65137,13.6558]],[[74.65242,13.6571],[74.65242,13.6571]],[[74.65256,13.65778],[74.65256,13.65778]],[[92.75481,13.20122],[92.75481,13.20122]],[[74.63816,13.67723],[74.63816,13.67723]],[[74.64256,13.68046],[74.64256,13.68046]],[[74.64329,13.68098],[74.64329,13.68098]],[[92.82537,13.20903],[92.82537,13.20903]],[[92.82728,13.20942],[92.82728,13.20942]],[[92.82853,13.21047],[92.82853,13.21047]],[[74.63632,13.68444],[74.63632,13.68444]],[[74.62466,13.68521],[74.62466,13.68521]],[[93.05942,13.22379],[93.05942,13.22379]],[[93.06197,13.22573],[93.06197,13.22573]],[[93.06054,13.22482],[93.06054,13.22482]],[[92.83909,13.2486],[92.83909,13.2486]],[[92.84006,13.24903],[92.84006,13.24903]],[[93.04923,13.26369],[93.04923,13.26369]],[[92.8001,13.28552],[92.8001,13.28552]],[[92.79369,13.28726],[92.79369,13.28726]],[[92.81583,13.28808],[92.81583,13.28808]],[[93.0679,13.26663],[93.0679,13.26663]],[[93.0684,13.2672],[93.0684,13.2672]],[[93.06819,13.26776],[93.06819,13.26776]],[[93.06928,13.26621],[93.06928,13.26621]],[[93.06842,13.2686],[93.06842,13.2686]],[[93.07089,13.27263],[93.07089,13.27263]],[[93.0704,13.27285],[93.0704,13.27285]],[[93.07004,13.27304],[93.07004,13.27304]],[[93.07109,13.27314],[93.07109,13.27314]],[[93.07066,13.27349],[93.07066,13.27349]],[[93.07171,13.27366],[93.07171,13.27366]],[[93.07021,13.27372],[93.07021,13.27372]],[[93.07111,13.27391],[93.07111,13.27391]],[[93.0707,13.27454],[93.0707,13.27454]],[[92.81688,13.29802],[92.81688,13.29802]],[[93.03295,13.27973],[93.03295,13.27973]],[[93.01495,13.28543],[93.01495,13.28543]],[[74.62902,13.77631],[74.62902,13.77631]],[[93.02123,13.29434],[93.02123,13.29434]],[[93.02169,13.29501],[93.02169,13.29501]],[[92.98472,13.29847],[92.98472,13.29847]],[[93.04901,13.29499],[93.04901,13.29499]],[[93.08012,13.29486],[93.08012,13.29486]],[[93.07571,13.29539],[93.07571,13.29539]],[[93.07605,13.29613],[93.07605,13.29613]],[[93.07746,13.29566],[93.07746,13.29566]],[[93.078,13.29567],[93.078,13.29567]],[[93.07684,13.29578],[93.07684,13.29578]],[[93.07605,13.29613],[93.07605,13.29613]],[[93.07863,13.29603],[93.07863,13.29603]],[[93.07624,13.29627],[93.07624,13.29627]],[[93.07755,13.29614],[93.07755,13.29614]],[[93.07872,13.29652],[93.07872,13.29652]],[[93.08201,13.2971],[93.08201,13.2971]],[[93.08,13.29749],[93.08,13.29749]],[[93.08103,13.29854],[93.08103,13.29854]],[[93.08137,13.29857],[93.08137,13.29857]],[[93.0821,13.29969],[93.0821,13.29969]],[[93.08255,13.29991],[93.08255,13.29991]],[[93.08304,13.30015],[93.08304,13.30015]],[[93.02186,13.31504],[93.02186,13.31504]],[[93.02232,13.31564],[93.02232,13.31564]],[[93.02209,13.31626],[93.02209,13.31626]],[[93.02142,13.31815],[93.02142,13.31815]],[[93.005,13.3065],[93.005,13.3065]],[[93.00547,13.32279],[93.00547,13.32279]],[[93.0228,13.32884],[93.02207,13.30194],[93.0228,13.32884]],[[92.9691,13.3392],[92.9691,13.3392]],[[93.00894,13.33726],[93.00894,13.33726]],[[74.61589,13.82722],[74.61589,13.82722]],[[93.01341,13.33699],[93.01341,13.33699]],[[74.6148,13.82804],[74.6148,13.82804]],[[74.6154,13.82805],[74.6154,13.82805]],[[93.01977,13.34514],[93.01977,13.34514]],[[93.0364,13.33966],[93.0364,13.33966]],[[92.82962,13.36832],[92.82962,13.36832]],[[93.03612,13.36058],[93.03612,13.36058]],[[93.03849,13.36365],[93.03849,13.36365]],[[93.08087,13.3662],[93.08087,13.3662]],[[93.07545,13.36606],[93.07545,13.36606]],[[93.0813,13.36638],[93.0813,13.36638]],[[93.08084,13.36666],[93.08084,13.36666]],[[93.08225,13.36727],[93.08225,13.36727]],[[93.08131,13.36695],[93.08131,13.36695]],[[93.03592,13.3738],[93.03592,13.3738]],[[93.0473,13.37357],[93.0473,13.37357]],[[93.04555,13.3755],[93.04555,13.3755]],[[93.04461,13.37547],[93.04461,13.37547]],[[93.0778,13.37642],[93.0778,13.37642]],[[93.08001,13.37664],[93.08001,13.37664]],[[93.07724,13.37714],[93.07724,13.37714]],[[93.07775,13.37719],[93.07775,13.37719]],[[93.07962,13.37739],[93.07962,13.37739]],[[93.06002,13.36911],[93.08894,13.34126],[93.07436,13.2971],[93.03859,13.32771],[93.03843,13.36189],[93.05141,13.3806],[93.06002,13.36911]],[[93.0625,13.38672],[93.0625,13.38672]],[[74.53928,13.88756],[74.53928,13.88756]],[[93.08324,13.39621],[93.08324,13.39621]],[[74.58138,13.88974],[74.58138,13.88974]],[[74.53884,13.88849],[74.53884,13.88849]],[[93.08273,13.39674],[93.08273,13.39674]],[[92.84679,13.41926],[92.84679,13.41926]],[[92.86243,13.42105],[92.86243,13.42105]],[[92.81537,13.42041],[92.80707,13.4009],[92.81537,13.42041]],[[93.09487,13.42026],[93.09021,13.40678],[93.09487,13.42026]],[[92.84338,13.43821],[92.81892,13.42479],[92.84338,13.43821]],[[93.07218,13.43228],[93.07021,13.41849],[93.07218,13.43228]],[[93.0741,13.43213],[93.0741,13.43213]],[[93.07756,13.43318],[93.07756,13.43318]],[[93.08684,13.43107],[93.08684,13.43107]],[[92.86945,13.45359],[92.86945,13.45359]],[[92.87084,13.45451],[92.87084,13.45451]],[[93.09726,13.43879],[93.09726,13.43879]],[[92.8633,13.46079],[92.8633,13.46079]],[[74.5262,13.97327],[74.5262,13.97327]],[[74.52413,13.97482],[74.52413,13.97482]],[[74.50923,13.98157],[74.50923,13.98157]],[[74.50973,13.9818],[74.50973,13.9818]],[[74.50935,13.98197],[74.50935,13.98197]],[[92.87375,13.51355],[92.87375,13.51355]],[[92.90599,13.52148],[92.90599,13.52148]],[[74.50575,13.99732],[74.50575,13.99732]],[[74.50588,13.99888],[74.50588,13.99888]],[[74.50676,13.99924],[74.50676,13.99924]],[[74.50589,14.00071],[74.50589,14.00071]],[[92.98466,13.53003],[92.98466,13.53003]],[[74.48297,14.01031],[74.48297,14.01031]],[[92.87498,13.54085],[92.87498,13.54085]],[[92.90853,13.53835],[92.90853,13.53835]],[[92.97883,13.53553],[92.97883,13.53553]],[[74.32315,14.01013],[74.32315,14.01013]],[[74.49213,14.01753],[74.49213,14.01753]],[[92.91479,13.54127],[92.91479,13.54127]],[[92.98639,13.53413],[92.98639,13.53413]],[[74.48857,14.01928],[74.48857,14.01928]],[[74.48663,14.0237],[74.48663,14.0237]],[[74.48543,14.02519],[74.48543,14.02519]],[[74.32747,14.0186],[74.32747,14.0186]],[[93.05723,13.5668],[93.05723,13.5668]],[[93.00043,13.57251],[93.00043,13.57251]],[[92.98348,13.57773],[92.98348,13.57773]],[[92.82853,13.21047],[92.8255,13.23668],[92.84915,13.23916],[92.86096,13.18884],[92.843,13.24067],[92.86885,13.2546],[92.81244,13.27475],[92.83658,13.28855],[92.82106,13.30916],[92.8327,13.36535],[92.86966,13.39047],[92.84053,13.38844],[92.84206,13.40965],[92.86911,13.4147],[92.88783,13.37101],[92.88481,13.39675],[92.92208,13.38903],[92.87404,13.40433],[92.87447,13.43343],[92.8968,13.42561],[92.87015,13.47032],[92.89771,13.4655],[92.91885,13.50092],[92.91863,13.45846],[92.93445,13.4992],[92.91429,13.51478],[92.94408,13.51951],[92.91355,13.5351],[92.96841,13.54758],[92.99889,13.52384],[92.98209,13.56944],[93.00996,13.5488],[93.02402,13.57878],[93.04204,13.50285],[93.03477,13.46779],[93.0087,13.45953],[93.0359,13.43977],[92.98981,13.42897],[93.03805,13.42803],[93.06819,13.3991],[93.02977,13.37479],[93.00012,13.39357],[92.98232,13.37804],[93.03581,13.37037],[93.03746,13.34926],[92.98069,13.33119],[92.95447,13.35915],[92.94809,13.31919],[92.99654,13.31531],[92.97411,13.28324],[93.00801,13.30303],[93.01068,13.27751],[93.0451,13.28262],[93.04398,13.25866],[93.06144,13.27048],[93.03175,13.17858],[93.03462,13.0828],[93.00566,13.03087],[92.95964,13.01423],[92.93402,13.04077],[92.95362,13.06913],[92.93732,13.06974],[92.94092,13.14288],[92.92,13.05548],[92.87473,13.14601],[92.87668,13.10371],[92.91214,13.06679],[92.88644,13.04581],[92.85925,13.07407],[92.84158,13.05989],[92.86201,13.06538],[92.86373,13.04395],[92.9153,13.05492],[92.90704,13.00472],[92.89431,13.01123],[92.93739,12.97393],[92.91316,12.94912],[92.88406,13.00021],[92.86811,12.93464],[92.84,12.9497],[92.8475,12.91182],[92.87513,12.9077],[92.84414,12.87739],[92.79971,12.90548],[92.79008,12.96402],[92.79914,12.99167],[92.82118,12.97811],[92.81939,13.00506],[92.83783,12.99567],[92.83168,13.01974],[92.78929,13.01714],[92.79301,13.08992],[92.81556,13.07439],[92.80556,13.09864],[92.82453,13.11279],[92.80853,13.12593],[92.84709,13.11815],[92.84737,13.1448],[92.81054,13.15196],[92.82203,13.1737],[92.84803,13.16267],[92.81578,13.18414],[92.82853,13.21047]],[[93.00422,13.58426],[93.00422,13.58426]],[[94.26511,13.46335],[94.24632,13.43271],[94.26511,13.46335]],[[92.90178,13.6039],[92.88035,13.57727],[92.90178,13.6039]],[[74.47903,14.08243],[74.47903,14.08243]],[[74.47025,14.08313],[74.47025,14.08313]],[[74.48022,14.08722],[74.48022,14.08722]],[[93.01501,13.63136],[93.01501,13.63136]],[[93.01403,13.63363],[93.01403,13.63363]],[[93.01045,13.63867],[93.01045,13.63867]],[[93.03507,13.64126],[93.03507,13.64126]],[[93.03442,13.64497],[93.03442,13.64497]],[[93.06393,13.65494],[93.04181,13.62759],[93.06393,13.65494]],[[93.0315,13.66198],[93.0315,13.66198]],[[93.03027,13.66275],[93.03027,13.66275]],[[93.10833,13.65575],[93.10833,13.65575]],[[93.10631,13.65752],[93.10631,13.65752]],[[93.11081,13.6574],[93.11081,13.6574]],[[93.10768,13.66082],[93.10768,13.66082]],[[93.02741,13.67081],[93.02741,13.67081]],[[93.01549,13.67696],[93.02329,13.62371],[92.97132,13.64966],[93.01549,13.67696]],[[74.40521,14.31399],[74.40521,14.31399]],[[74.38777,14.41775],[74.38777,14.41775]],[[74.31908,14.51682],[74.31908,14.51682]],[[74.31954,14.51897],[74.31954,14.51897]],[[74.30914,14.52561],[74.30914,14.52561]],[[74.27312,14.62454],[74.27312,14.62454]],[[74.27342,14.63671],[74.27342,14.63671]],[[74.27743,14.66095],[74.27743,14.66095]],[[74.25424,14.70414],[74.25424,14.70414]],[[74.25316,14.70426],[74.25316,14.70426]],[[74.24167,14.71151],[74.24167,14.71151]],[[74.25555,14.72067],[74.25555,14.72067]],[[74.14884,14.72455],[74.14884,14.72455]],[[74.14771,14.72595],[74.14771,14.72595]],[[74.1648,14.73402],[74.1648,14.73402]],[[74.22928,14.74073],[74.22928,14.74073]],[[74.15677,14.73679],[74.15677,14.73679]],[[74.12824,14.75854],[74.12824,14.75854]],[[74.1463,14.76018],[74.1463,14.76018]],[[74.11312,14.75812],[74.11312,14.75812]],[[74.08716,14.79263],[74.08716,14.79263]],[[74.08897,14.79371],[74.08897,14.79371]],[[74.05628,14.81716],[74.05628,14.81716]],[[74.07209,14.81886],[74.07209,14.81886]],[[74.06655,14.81996],[74.06655,14.81996]],[[74.06361,14.82145],[74.06361,14.82145]],[[74.05905,14.82146],[74.05905,14.82146]],[[74.09364,14.83582],[74.09364,14.83582]],[[74.11009,14.84577],[74.11009,14.84577]],[[74.10004,14.84466],[74.10004,14.84466]],[[74.10782,14.86535],[74.10782,14.86535]],[[74.10231,14.87752],[74.10231,14.87752]],[[74.09521,14.87952],[74.09521,14.87952]],[[73.76217,15.35408],[73.76217,15.35408]],[[73.78248,15.35508],[73.78248,15.35508]],[[73.79693,15.37321],[73.79693,15.37321]],[[82.3196,16.5674],[82.3196,16.5674]],[[82.31945,16.57281],[82.31945,16.57281]],[[82.34457,16.60689],[82.32967,16.59398],[82.34457,16.60689]],[[82.33766,16.6046],[82.33766,16.6046]],[[73.2856,16.98943],[73.2856,16.98943]],[[83.00994,17.48318],[83.00994,17.48318]],[[83.11013,17.54254],[83.11013,17.54254]],[[83.11081,17.54372],[83.11081,17.54372]],[[83.24031,17.61963],[83.24031,17.61963]],[[73.12017,17.76655],[73.12017,17.76655]],[[73.10157,17.80412],[73.10157,17.80412]],[[84.55741,18.80555],[84.55741,18.80555]],[[84.57706,18.83596],[84.57706,18.83596]],[[84.57745,18.83712],[84.57745,18.83712]],[[72.90491,18.96087],[72.90491,18.96087]],[[72.94177,18.96879],[72.92487,18.96272],[72.94177,18.96879]],[[72.73548,19.46474],[72.73548,19.46474]],[[86.78047,20.35814],[86.78047,20.35814]],[[86.79212,20.3817],[86.79212,20.3817]],[[86.80554,20.39577],[86.80313,20.36758],[86.80554,20.39577]],[[86.78787,20.38347],[86.79402,20.49039],[86.8082,20.45439],[86.78787,20.38347]],[[87.01175,20.71231],[87.01175,20.71231]],[[87.00275,20.71177],[87.00275,20.71177]],[[87.05714,20.73021],[87.05714,20.73021]],[[87.05184,20.73785],[87.05184,20.73785]],[[87.07416,20.73202],[87.07416,20.73202]],[[87.05714,20.74542],[87.05714,20.74542]],[[87.07109,20.73668],[87.07109,20.73668]],[[87.09767,20.7482],[87.09767,20.7482]],[[87.10036,20.74892],[87.10036,20.74892]],[[87.08638,20.76383],[87.08638,20.76383]],[[86.98171,20.77771],[86.98171,20.77771]],[[87.07358,20.79111],[87.07542,20.77371],[87.07358,20.79111]],[[86.99013,20.80243],[86.99013,20.80243]],[[71.15536,20.76009],[71.15536,20.76009]],[[71.17139,20.76534],[71.17139,20.76534]],[[71.17139,20.76534],[71.17139,20.76534]],[[71.17141,20.76534],[71.17141,20.76534]],[[71.17596,20.76679],[71.17596,20.76679]],[[71.25606,20.81164],[71.25606,20.81164]],[[71.262,20.81504],[71.262,20.81504]],[[71.27065,20.81926],[71.27065,20.81926]],[[71.3042,20.83196],[71.3042,20.83196]],[[71.30915,20.83258],[71.30915,20.83258]],[[71.30407,20.83379],[71.30407,20.83379]],[[71.45739,20.87864],[71.45739,20.87864]],[[71.53549,20.90268],[71.53549,20.90268]],[[71.5367,20.90384],[71.5367,20.90384]],[[71.53562,20.90395],[71.53562,20.90395]],[[71.53362,20.90387],[71.53362,20.90387]],[[71.54719,20.91318],[71.54719,20.91318]],[[71.54518,20.91344],[71.54518,20.91344]],[[71.52079,20.91285],[71.52079,20.91285]],[[71.51823,20.91255],[71.51823,20.91255]],[[71.67552,20.98412],[71.67552,20.98412]],[[71.67654,20.98729],[71.67654,20.98729]],[[71.68599,20.9932],[71.68599,20.9932]],[[71.67546,20.99156],[71.67546,20.99156]],[[71.70858,20.99696],[71.70858,20.99696]],[[71.65836,20.99637],[71.65836,20.99637]],[[71.70129,20.9987],[71.70129,20.9987]],[[71.9158,21.10769],[71.9158,21.10769]],[[72.0127,21.13302],[72.0127,21.13302]],[[72.0341,21.15455],[72.0341,21.15455]],[[72.0467,21.16051],[72.0467,21.16051]],[[72.06743,21.1766],[72.06743,21.1766]],[[72.08392,21.18626],[72.08392,21.18626]],[[87.4301,21.58621],[87.41449,21.56195],[87.4301,21.58621]],[[72.75274,21.56567],[72.76851,21.59692],[72.75274,21.56567]],[[88.01734,21.56009],[88.01734,21.56009]],[[72.36084,21.59216],[72.35043,21.60205],[72.36084,21.59216]],[[88.17272,21.58416],[88.19849,21.54165],[88.17679,21.54836],[88.16401,21.59766],[88.17272,21.58416]],[[72.74948,21.65279],[72.74948,21.65279]],[[72.7676,21.65702],[72.81491,21.65283],[72.82035,21.62518],[72.69549,21.58862],[72.64335,21.53319],[72.57519,21.53233],[72.58915,21.58504],[72.61621,21.54732],[72.62337,21.62651],[72.7676,21.65702]],[[72.7603,21.66011],[72.7603,21.66011]],[[72.73346,21.65161],[72.73346,21.65161]],[[72.75032,21.65785],[72.75032,21.65785]],[[72.74271,21.65758],[72.74271,21.65758]],[[72.73779,21.66363],[72.72009,21.65656],[72.73779,21.66363]],[[88.50859,21.59216],[88.53583,21.58007],[88.53137,21.52708],[88.48534,21.55144],[88.50859,21.59216]],[[72.73335,21.66609],[72.73335,21.66609]],[[88.94721,21.59571],[88.94721,21.59571]],[[88.83401,21.60804],[88.89488,21.57768],[88.90619,21.54913],[88.87016,21.53502],[88.8323,21.55064],[88.83401,21.60804]],[[89.15105,21.60004],[89.13516,21.59907],[89.15105,21.60004]],[[88.53895,21.63893],[88.58725,21.6038],[88.55854,21.56098],[88.51174,21.603],[88.52235,21.65827],[88.53895,21.63893]],[[88.04293,21.69235],[88.04293,21.69235]],[[88.05241,21.70232],[88.05241,21.70232]],[[88.04364,21.70059],[88.04364,21.70059]],[[88.05318,21.70305],[88.05318,21.70305]],[[88.63505,21.66294],[88.63158,21.64941],[88.64257,21.67879],[88.63505,21.66294]],[[88.30938,21.70486],[88.35078,21.67262],[88.3443,21.6276],[88.31344,21.60665],[88.30938,21.70486]],[[88.2064,21.67052],[88.23237,21.64271],[88.21221,21.6046],[88.18177,21.68678],[88.21152,21.71198],[88.2064,21.67052]],[[88.18242,21.68823],[88.20354,21.72584],[88.18242,21.68823]],[[88.74978,21.64962],[88.77466,21.64929],[88.79705,21.58802],[88.74203,21.56219],[88.70859,21.58472],[88.71884,21.63474],[88.68726,21.67931],[88.69251,21.72016],[88.74978,21.64962]],[[88.20115,21.72834],[88.20421,21.75457],[88.20115,21.72834]],[[88.41516,21.72519],[88.41169,21.65322],[88.43192,21.62148],[88.40538,21.58953],[88.38227,21.66024],[88.40438,21.71304],[88.37313,21.72387],[88.39389,21.75081],[88.41516,21.72519]],[[88.38768,21.76279],[88.36336,21.72546],[88.39369,21.7117],[88.35707,21.68646],[88.3447,21.75724],[88.38768,21.76279]],[[88.19813,21.76905],[88.19813,21.76905]],[[88.30132,21.75184],[88.29929,21.71492],[88.27998,21.73696],[88.28832,21.77527],[88.30132,21.75184]],[[88.60395,21.72556],[88.5821,21.7257],[88.58168,21.77596],[88.61968,21.7351],[88.60395,21.72556]],[[88.18152,21.78383],[88.17876,21.7986],[88.18152,21.78383]],[[88.6084,21.78459],[88.62975,21.75147],[88.61182,21.70589],[88.59796,21.71292],[88.61934,21.74337],[88.58739,21.75721],[88.6084,21.78459]],[[88.42218,21.81058],[88.46549,21.79239],[88.45289,21.71865],[88.47151,21.67473],[88.43532,21.604],[88.43286,21.70219],[88.38381,21.77654],[88.42218,21.81058]],[[88.57968,21.71738],[88.60626,21.68449],[88.60267,21.61254],[88.52819,21.66042],[88.50629,21.75836],[88.54137,21.8104],[88.57327,21.78849],[88.5599,21.77109],[88.57968,21.71738]],[[88.19967,21.83595],[88.20229,21.82138],[88.19967,21.83595]],[[88.48318,21.83491],[88.4999,21.81133],[88.46564,21.80009],[88.45724,21.81633],[88.48318,21.83491]],[[88.19072,21.83056],[88.16619,21.86947],[88.19072,21.83056]],[[88.14858,21.84973],[88.17071,21.74311],[88.13779,21.67962],[88.14546,21.64215],[88.12324,21.6257],[88.06256,21.6373],[88.04148,21.67587],[88.07651,21.77614],[88.13051,21.87199],[88.14858,21.84973]],[[88.17427,21.86369],[88.16597,21.87608],[88.17427,21.86369]],[[88.56646,21.87999],[88.5577,21.82828],[88.56646,21.87999]],[[88.56171,21.89724],[88.57594,21.88615],[88.55217,21.87293],[88.55425,21.81818],[88.53155,21.8447],[88.54204,21.89824],[88.56171,21.89724]],[[88.13026,21.93016],[88.13333,21.9004],[88.13026,21.93016]],[[88.64859,21.91786],[88.66864,21.91457],[88.64456,21.78794],[88.59653,21.79709],[88.58021,21.83473],[88.64859,21.91786]],[[88.93731,21.91475],[89.03134,21.86396],[89.01579,21.77974],[89.09356,21.66368],[89.06813,21.61738],[89.02701,21.65254],[89.02767,21.60512],[88.94987,21.63156],[88.95131,21.69385],[88.92084,21.76239],[88.91376,21.72048],[88.94013,21.68904],[88.92417,21.6373],[88.88413,21.66117],[88.87722,21.76661],[88.84001,21.78189],[88.85315,21.88889],[88.81975,21.93061],[88.93731,21.91475]],[[88.56796,21.95848],[88.60929,21.92679],[88.58729,21.89395],[88.55213,21.9198],[88.54348,21.96855],[88.56796,21.95848]],[[88.12331,22.0203],[88.14026,22.01614],[88.12523,21.99598],[88.08843,22.00516],[88.12331,22.0203]],[[88.60318,21.99118],[88.60935,21.93084],[88.57583,21.97517],[88.60318,21.99118]],[[88.94364,22.00087],[88.9894,21.97144],[89.00977,21.98033],[88.98875,21.95532],[89.01308,21.9074],[88.93143,21.94158],[88.94364,22.00087]],[[69.32461,22.30324],[69.32461,22.30324]],[[69.31031,22.3049],[69.31031,22.3049]],[[69.32821,22.33639],[69.32821,22.33639]],[[69.45444,22.35716],[69.45444,22.35716]],[[69.55144,22.37275],[69.55144,22.37275]],[[69.48201,22.38811],[69.48201,22.38811]],[[69.18414,22.36701],[69.18414,22.36701]],[[69.19592,22.37217],[69.19592,22.37217]],[[69.33941,22.38597],[69.3243,22.37968],[69.33941,22.38597]],[[69.48308,22.39167],[69.48308,22.39167]],[[69.21693,22.38243],[69.21693,22.38243]],[[69.21428,22.38255],[69.21428,22.38255]],[[69.19976,22.38452],[69.19976,22.38452]],[[69.2052,22.38961],[69.2052,22.38961]],[[69.20411,22.3896],[69.20411,22.3896]],[[69.20548,22.39547],[69.20548,22.39547]],[[69.20953,22.39997],[69.20953,22.39997]],[[69.20865,22.40128],[69.20865,22.40128]],[[69.20723,22.40332],[69.20723,22.40332]],[[69.20584,22.40415],[69.20584,22.40415]],[[69.28012,22.41755],[69.28012,22.41755]],[[69.7378,22.44891],[69.7378,22.44891]],[[69.73888,22.44771],[69.73888,22.44771]],[[69.50459,22.4344],[69.54976,22.40824],[69.55797,22.37591],[69.52178,22.37081],[69.50459,22.4344]],[[69.27681,22.41933],[69.27681,22.41933]],[[69.16684,22.41107],[69.16684,22.41107]],[[69.62893,22.45885],[69.65683,22.42538],[69.6323,22.40723],[69.58993,22.43565],[69.62893,22.45885]],[[69.07175,22.42961],[69.07175,22.42961]],[[69.05305,22.43009],[69.05305,22.43009]],[[69.11061,22.43679],[69.11061,22.43679]],[[69.06899,22.43802],[69.06899,22.43802]],[[69.80118,22.48899],[69.80118,22.48899]],[[69.30807,22.4714],[69.30807,22.4714]],[[69.30139,22.46508],[69.32727,22.46249],[69.30139,22.46508]],[[69.94537,22.52989],[69.94537,22.52989]],[[69.13752,22.47622],[69.14336,22.45478],[69.11275,22.46464],[69.08933,22.4257],[69.09694,22.46225],[69.13752,22.47622]],[[69.94377,22.52047],[69.94377,22.52047]],[[69.93631,22.53184],[69.93631,22.53184]],[[69.95567,22.53428],[69.95567,22.53428]],[[69.93287,22.53848],[69.93287,22.53848]],[[69.95766,22.53891],[69.95766,22.53891]],[[70.05155,22.54493],[70.04259,22.52644],[70.05155,22.54493]],[[70.01933,22.54814],[70.01933,22.54814]],[[69.08539,22.48594],[69.08539,22.48594]],[[70.01179,22.55223],[69.99642,22.54926],[70.01179,22.55223]],[[69.9313,22.54373],[69.91354,22.51336],[69.86392,22.52788],[69.9313,22.54373]],[[69.9511,22.55054],[69.93954,22.53946],[69.9511,22.55054]],[[70.01481,22.55342],[70.01481,22.55342]],[[70.04275,22.56666],[70.04275,22.56666]],[[69.40378,22.52713],[69.40378,22.52713]],[[69.3239,22.52655],[69.36088,22.5154],[69.33019,22.50962],[69.3239,22.52655]],[[69.9329,22.57755],[69.9329,22.57755]],[[70.04587,22.59348],[70.04587,22.59348]],[[70.01195,22.58919],[70.01737,22.56183],[69.96184,22.54917],[69.96343,22.57164],[70.01195,22.58919]],[[69.96146,22.59856],[69.96146,22.59856]],[[69.95403,22.60306],[69.95403,22.60306]],[[70.43889,22.97788],[70.45448,22.99629],[70.43889,22.97788]],[[70.13113,22.98021],[70.13113,22.98021]],[[70.45263,23.04331],[70.45263,23.04331]],[[70.45118,23.02541],[70.45573,23.04225],[70.45118,23.02541]],[[70.43693,23.04717],[70.42158,23.02693],[70.43693,23.04717]],[[70.41347,22.98667],[70.44406,23.04612],[70.41347,22.98667]],[[70.45934,23.05458],[70.45934,23.05458]],[[70.46278,23.05461],[70.46278,23.05461]],[[70.46397,23.04335],[70.48009,23.06186],[70.46397,23.04335]],[[70.25765,23.1738],[70.25765,23.1738]],[[70.25254,23.17584],[70.25254,23.17584]],[[68.52924,23.68865],[68.54436,23.6732],[68.52272,23.65534],[68.52924,23.68865]],[[74.71192,37.06379],[74.74714,37.02011],[74.76905,37.04122],[74.83263,37.03884],[74.83479,37.00526],[74.91558,36.92026],[75.01567,36.99072],[75.10915,36.9619],[75.21096,37.05002],[75.33628,37.06283],[75.35984,36.9835],[75.41845,36.9724],[75.40692,36.90803],[75.44982,36.88893],[75.46327,36.83031],[75.60806,36.77718],[75.74442,36.6077],[75.80702,36.56342],[76.07115,36.48424],[76.16395,36.40645],[76.2665,36.35884],[76.35393,36.36945],[76.4348,36.31234],[76.43919,36.25995],[76.47917,36.22266],[76.59409,36.17832],[76.65592,36.19218],[76.72009,36.0977],[76.80954,36.04636],[76.73227,35.95591],[76.80748,35.84975],[77.001,35.77556],[77.11566,35.79811],[77.17054,35.76684],[77.17968,35.73022],[77.25834,35.70432],[77.28744,35.72259],[77.32107,35.70105],[77.36587,35.71519],[77.41156,35.65626],[77.43794,35.65614],[77.4822,35.53017],[77.43052,35.51367],[77.38866,35.53944],[77.33204,35.53035],[77.39691,35.47136],[77.68516,35.46682],[77.72694,35.47695],[77.73587,35.5211],[77.78632,35.48798],[77.82205,35.50624],[77.91208,35.46109],[77.92932,35.49031],[77.97727,35.44892],[77.93752,35.51722],[77.96794,35.57177],[77.95377,35.60158],[78.05403,35.58205],[78.13677,35.53657],[78.16491,35.55174],[78.16983,35.625],[78.19744,35.62284],[78.21205,35.666],[78.26422,35.64719],[78.2877,35.72232],[78.40386,35.73585],[78.44267,35.78364],[78.53416,35.76251],[78.69524,35.859],[78.83907,35.85612],[78.9692,35.89017],[79.02815,35.85025],[79.16467,35.83819],[79.21049,35.8761],[79.20449,35.9277],[79.2309,35.97216],[79.35803,35.99173],[79.41035,35.98598],[79.4402,35.89408],[79.53623,35.87964],[79.75109,35.79692],[79.89546,35.7749],[79.96251,35.82248],[80.01079,35.82661],[80.12689,35.66067],[80.31171,35.58796],[80.34508,35.46117],[80.29848,35.41699],[80.24266,35.20802],[80.18503,35.13063],[80.18696,35.0106],[80.075,34.80542],[80.06531,34.69286],[79.94466,34.6609],[79.87826,34.67486],[79.7766,34.61038],[79.79438,34.58054],[79.76978,34.53778],[79.82104,34.51446],[79.79144,34.46675],[79.60076,34.48568],[79.52215,34.46362],[79.53163,34.40875],[79.5667,34.40559],[79.59214,34.23582],[79.54006,34.19131],[79.49369,34.18468],[79.48585,34.11335],[79.42111,34.07594],[79.43745,34.01265],[79.41551,33.99901],[79.37442,34.02624],[79.17293,34.05829],[79.11265,34.00894],[79.00115,34.03361],[78.95321,34.01313],[78.91832,33.96392],[79.01319,33.78294],[79.06045,33.77583],[79.01611,33.70226],[79.04632,33.67383],[79.078,33.68608],[79.10015,33.61632],[78.90286,33.62201],[78.94377,33.52607],[78.92708,33.45429],[78.97842,33.33641],[79.10769,33.28911],[79.22368,33.29628],[79.44611,33.25773],[79.44304,33.20036],[79.37322,33.10638],[79.38032,33.02767],[79.3249,33.01224],[79.3976,32.96185],[79.60962,32.72323],[79.42929,32.52353],[79.38453,32.5228],[79.37299,32.56048],[79.31187,32.58763],[79.25975,32.52265],[79.18209,32.47376],[79.12504,32.46502],[79.12976,32.41717],[79.09368,32.37713],[79.00355,32.37488],[78.97119,32.33569],[78.8067,32.44425],[78.75916,32.56779],[78.78236,32.59581],[78.74334,32.65498],[78.7507,32.69276],[78.70871,32.65613],[78.64837,32.64386],[78.60526,32.59109],[78.56551,32.61485],[78.45128,32.5776],[78.40782,32.5266],[78.4551,32.50685],[78.46555,32.45466],[78.53341,32.41038],[78.48839,32.35435],[78.46317,32.24024],[78.58795,32.2361],[78.61469,32.20881],[78.59678,32.15391],[78.61767,32.11522],[78.6566,32.11148],[78.7581,32.00095],[78.78555,31.99731],[78.70985,31.78662],[78.74119,31.75761],[78.75187,31.68912],[78.79483,31.68253],[78.85334,31.60743],[78.74705,31.53861],[78.73083,31.50607],[78.73428,31.48498],[78.76663,31.48642],[78.81278,31.44974],[78.79257,31.39607],[78.85877,31.36637],[78.85465,31.32346],[78.89879,31.26272],[78.93269,31.25294],[78.94759,31.31952],[79.00487,31.35373],[79.06174,31.46135],[79.12611,31.43528],[79.24699,31.32746],[79.2715,31.28677],[79.25187,31.24302],[79.29262,31.22122],[79.31393,31.14067],[79.40212,31.10214],[79.42476,31.03049],[79.51648,31.02792],[79.55559,30.95732],[79.60185,30.93348],[79.6749,30.98349],[79.73548,30.98154],[79.75301,31.00787],[79.86271,30.97536],[79.93052,30.88154],[79.98962,30.87859],[80.11583,30.77823],[80.17777,30.80405],[80.21307,30.75066],[80.23285,30.76017],[80.24849,30.72212],[80.197,30.66509],[80.25685,30.56017],[80.28307,30.57219],[80.38283,30.51614],[80.41273,30.5252],[80.54635,30.44845],[80.59801,30.47877],[80.74572,30.39737],[80.82157,30.31556],[81.03321,30.24639],[81.04328,30.20456],[80.96005,30.17899],[80.89975,30.21272],[80.86776,30.17387],[80.87535,30.12732],[80.76128,30.04964],[80.74509,30.00445],[80.67113,29.95737],[80.60185,29.95813],[80.55312,29.85134],[80.4881,29.79597],[80.40779,29.79497],[80.36487,29.74472],[80.38551,29.67367],[80.41623,29.65201],[80.4069,29.59451],[80.34795,29.55515],[80.34816,29.5174],[80.28848,29.47217],[80.30256,29.45448],[80.24453,29.44646],[80.24209,29.41203],[80.31676,29.3154],[80.29623,29.20331],[80.25172,29.22145],[80.2709,29.14087],[80.23097,29.11892],[80.18045,29.13403],[80.14294,29.09854],[80.11808,28.98212],[80.10156,28.9866],[80.05898,28.91051],[80.07155,28.82878],[80.11909,28.8282],[80.21213,28.7579],[80.25658,28.75425],[80.25652,28.72925],[80.31455,28.70176],[80.35797,28.63879],[80.43599,28.63665],[80.52153,28.55366],[80.50593,28.67084],[80.56866,28.68813],[80.59155,28.65014],[80.66912,28.63559],[80.71453,28.5684],[80.7686,28.56591],[80.79388,28.52305],[80.86091,28.49355],[80.89609,28.50702],[80.91036,28.46162],[80.97407,28.45616],[80.97215,28.43596],[81.0149,28.45147],[81.03383,28.3989],[81.04699,28.41043],[81.07974,28.38506],[81.21117,28.36034],[81.23474,28.28664],[81.31822,28.19965],[81.31536,28.13722],[81.36663,28.14169],[81.3735,28.17622],[81.44654,28.16108],[81.48616,28.07801],[81.63065,28.0002],[81.70224,27.98516],[81.88632,27.85665],[81.92129,27.85851],[81.96791,27.92875],[82.06989,27.92363],[82.12095,27.86662],[82.20729,27.84396],[82.45334,27.67878],[82.69913,27.72195],[82.75577,27.5878],[82.74203,27.50204],[82.92559,27.50122],[82.95741,27.46678],[83.03347,27.4491],[83.18098,27.45485],[83.31722,27.33029],[83.37196,27.35762],[83.40929,27.41403],[83.38519,27.43451],[83.39185,27.47773],[83.6148,27.46921],[83.85894,27.35023],[83.88251,27.37858],[83.83267,27.42609],[83.84611,27.44461],[84.02187,27.43333],[84.06048,27.45269],[84.10292,27.51913],[84.14535,27.51823],[84.14744,27.49184],[84.20792,27.46814],[84.21242,27.44151],[84.25077,27.45428],[84.29238,27.38481],[84.62242,27.33618],[84.6899,27.21743],[84.67453,27.09751],[84.64285,27.04758],[84.79195,26.99791],[84.82445,27.02056],[84.8902,26.97139],[84.95995,26.96085],[84.97112,26.91818],[85.05938,26.88493],[85.02393,26.85504],[85.19123,26.86945],[85.17674,26.80965],[85.21103,26.75843],[85.33209,26.74261],[85.40666,26.78989],[85.49528,26.79718],[85.6239,26.87378],[85.72561,26.8132],[85.73231,26.65561],[85.8218,26.60237],[85.8479,26.60897],[85.84899,26.57187],[85.94363,26.61348],[85.96012,26.65101],[86.02758,26.66679],[86.13611,26.62916],[86.13737,26.60892],[86.19312,26.61447],[86.21768,26.58848],[86.25109,26.61487],[86.33488,26.6187],[86.53751,26.53971],[86.56809,26.49946],[86.73634,26.4237],[86.76358,26.45735],[86.83004,26.43999],[86.8899,26.4612],[86.93528,26.51717],[87.01519,26.53198],[87.04466,26.58698],[87.07182,26.58581],[87.09699,26.44632],[87.1598,26.40505],[87.26105,26.40927],[87.27175,26.37272],[87.33701,26.3516],[87.36852,26.40739],[87.46568,26.43999],[87.60981,26.38073],[87.65135,26.39343],[87.68444,26.43556],[87.76022,26.4091],[87.79359,26.46857],[87.84443,26.43722],[87.88783,26.48467],[87.92662,26.42286],[88.01555,26.36236],[88.09622,26.44201],[88.098,26.53739],[88.16311,26.64751],[88.18699,26.75152],[88.17266,26.86581],[88.12217,26.94835],[88.1285,26.98763],[88.08003,27.03338],[88.03619,27.04085],[87.98834,27.11881],[88.06486,27.34114],[88.04282,27.37663],[88.07356,27.42825],[88.04475,27.4971],[88.19615,27.78922],[88.17559,27.81666],[88.196,27.85402],[88.13501,27.88162],[88.11991,27.91509],[88.14231,27.96094],[88.19918,27.94239],[88.23467,27.96908],[88.25066,27.94263],[88.35227,27.98995],[88.39684,27.97854],[88.49297,28.05041],[88.54777,28.03543],[88.55338,28.0799],[88.61934,28.09808],[88.61895,28.12701],[88.67575,28.0719],[88.75988,28.07354],[88.83628,28.01481],[88.83762,27.93161],[88.87002,27.9156],[88.88629,27.85431],[88.85697,27.8155],[88.84658,27.66491],[88.76432,27.56643],[88.79282,27.5289],[88.777,27.46868],[88.80703,27.40881],[88.91907,27.32289],[88.90692,27.27581],[88.80688,27.24936],[88.78901,27.18803],[88.74696,27.14511],[88.86704,27.11085],[88.87713,26.94436],[88.92026,26.99348],[88.95222,26.96871],[88.95129,26.93065],[88.98035,26.91719],[89.02332,26.93699],[89.04897,26.90146],[89.0954,26.89179],[89.10473,26.8389],[89.13706,26.8084],[89.2624,26.81378],[89.3777,26.86175],[89.39071,26.84181],[89.43948,26.84034],[89.47129,26.80262],[89.55354,26.81183],[89.65058,26.7763],[89.62369,26.71879],[89.67794,26.73911],[89.75638,26.73204],[89.77137,26.701],[89.86139,26.70172],[89.859,26.73487],[90.0485,26.73043],[90.19121,26.77211],[90.18837,26.80839],[90.22759,26.85661],[90.29801,26.84882],[90.35849,26.90078],[90.41524,26.90444],[90.5465,26.81672],[90.71617,26.76839],[91.05406,26.78099],[91.09756,26.82199],[91.33434,26.78131],[91.41263,26.83591],[91.49859,26.79172],[91.62552,26.82087],[91.6898,26.80645],[91.82415,26.86404],[91.89086,26.91873],[91.9855,26.85771],[92.05672,26.84739],[92.10265,26.86717],[92.12098,26.96036],[92.08255,27.03719],[92.03081,27.07992],[92.02788,27.16516],[92.07257,27.23311],[92.04729,27.26958],[92.12359,27.28435],[92.06536,27.32656],[92.01141,27.47977],[91.95337,27.46003],[91.85032,27.48576],[91.73274,27.46935],[91.69676,27.504],[91.65327,27.48325],[91.59513,27.5412],[91.56333,27.63825],[91.62784,27.69868],[91.64511,27.76492],[91.63011,27.80809],[91.60977,27.82334],[91.5763,27.81186],[91.55791,27.8563],[91.66318,27.85295],[91.70983,27.80797],[91.82415,27.81448],[91.85901,27.7426],[91.92128,27.72363],[91.99353,27.77118],[92.05143,27.76393],[92.21866,27.86951],[92.27754,27.86909],[92.31277,27.78849],[92.3851,27.80063],[92.4163,27.83055],[92.45627,27.81412],[92.50336,27.85395],[92.55329,27.82609],[92.74243,27.99259],[92.66534,28.06999],[92.70027,28.13577],[92.81477,28.21104],[92.8361,28.1791],[92.96271,28.25856],[92.99523,28.23281],[93.02827,28.26869],[93.02222,28.30585],[93.21796,28.32608],[93.22422,28.4055],[93.18045,28.43488],[93.27774,28.50131],[93.33336,28.63908],[93.44597,28.67472],[93.46704,28.65465],[93.49615,28.68597],[93.52142,28.6622],[93.58778,28.65432],[93.73988,28.68455],[93.78414,28.66336],[93.8506,28.70704],[93.94673,28.67393],[93.97295,28.74322],[94.00659,28.76739],[93.9867,28.80376],[94.00724,28.8407],[94.16446,28.95746],[94.2241,29.08783],[94.29306,29.14492],[94.36249,29.1526],[94.43812,29.22319],[94.55071,29.22075],[94.63098,29.34124],[94.7413,29.27474],[94.79301,29.2153],[94.79965,29.16589],[94.87867,29.17503],[95.02245,29.13394],[94.97528,29.15654],[94.99277,29.17076],[95.10638,29.11891],[95.23625,29.10985],[95.25691,29.05634],[95.41065,29.03052],[95.46645,29.06646],[95.48099,29.14307],[95.53072,29.13049],[95.52693,29.21566],[95.5722,29.22281],[95.58303,29.26061],[95.61926,29.2497],[95.77688,29.36165],[95.78213,29.34139],[95.86175,29.39512],[95.94181,29.38765],[96.04275,29.46073],[96.08125,29.46108],[96.23185,29.24478],[96.28957,29.24463],[96.3543,29.29205],[96.38083,29.25461],[96.34201,29.17838],[96.24495,29.16576],[96.17359,29.09922],[96.10206,29.07899],[96.14093,29.05828],[96.17147,28.99919],[96.13719,28.93753],[96.16087,28.89783],[96.32691,29.02802],[96.51358,29.07396],[96.46467,28.98314],[96.48122,28.95852],[96.50938,28.96637],[96.52609,28.88246],[96.60825,28.78152],[96.57931,28.71159],[96.47063,28.67885],[96.47447,28.62178],[96.40203,28.58095],[96.40001,28.55928],[96.34475,28.55401],[96.31858,28.52596],[96.36208,28.48034],[96.25339,28.40704],[96.31668,28.37757],[96.36258,28.38636],[96.40727,28.33899],[96.45713,28.41382],[96.50538,28.41098],[96.57075,28.45232],[96.64114,28.45779],[96.74085,28.41381],[96.77029,28.36703],[96.88795,28.37815],[96.98761,28.30333],[97.10228,28.34746],[97.1711,28.28567],[97.29526,28.26188],[97.38956,28.20694],[97.40281,28.18187],[97.36385,28.18909],[97.3279,28.15021],[97.34614,28.11437],[97.31043,28.07452],[97.32578,28.0527],[97.38095,28.05927],[97.41252,28.00887],[97.37298,27.96803],[97.37359,27.88018],[97.31323,27.91382],[97.24902,27.8993],[97.09385,27.74009],[97.04261,27.74662],[96.98478,27.66611],[96.94172,27.66074],[96.89838,27.61421],[96.92982,27.52418],[96.90345,27.45581],[97.1636,27.14261],[97.14022,27.09338],[97.06517,27.09183],[96.97992,27.15527],[96.87405,27.18109],[96.85506,27.20955],[96.88497,27.25832],[96.84989,27.27017],[96.79584,27.34578],[96.71019,27.37035],[96.60929,27.36565],[96.51867,27.287],[96.45822,27.30651],[96.22858,27.27834],[96.02665,27.18181],[95.9418,27.05038],[95.87076,27.01301],[95.80235,27.01475],[95.75524,26.95402],[95.74476,26.89621],[95.71919,26.88009],[95.66301,26.89886],[95.60336,26.81161],[95.52779,26.82459],[95.42587,26.69868],[95.30396,26.65101],[95.23382,26.68217],[95.14987,26.61596],[95.15079,26.58068],[95.06263,26.44733],[95.13112,26.3796],[95.11609,26.23591],[95.14227,26.21198],[95.11772,26.10157],[95.18584,26.07352],[95.0934,25.95369],[95.01305,25.89851],[95.04932,25.80115],[95.03917,25.74076],[94.93755,25.66868],[94.91514,25.60872],[94.88177,25.59114],[94.89779,25.56732],[94.84436,25.55963],[94.80638,25.4919],[94.6828,25.46288],[94.63337,25.39088],[94.57877,25.21674],[94.60454,25.18336],[94.7384,25.13086],[94.74115,25.03424],[94.69709,24.96886],[94.71114,24.92995],[94.63415,24.84046],[94.60662,24.71606],[94.54807,24.70953],[94.52921,24.61802],[94.45725,24.55241],[94.4068,24.47877],[94.39545,24.40571],[94.37018,24.39752],[94.38057,24.37821],[94.32716,24.32766],[94.31532,24.25268],[94.26173,24.16711],[94.25154,24.08191],[94.1622,23.91958],[94.15503,23.85524],[94.12578,23.83354],[94.0843,23.88143],[93.932,23.94958],[93.80967,23.92689],[93.75279,24.00505],[93.62224,24.01008],[93.59166,23.96059],[93.56461,23.98025],[93.50216,23.94475],[93.46159,23.97696],[93.41626,24.07177],[93.34879,24.10087],[93.3306,24.08394],[93.32983,23.98658],[93.34943,23.94668],[93.39187,23.92913],[93.39169,23.76118],[93.43656,23.68221],[93.39498,23.50065],[93.40155,23.38598],[93.35737,23.35399],[93.38563,23.13576],[93.29582,23.00933],[93.24166,23.00695],[93.18668,23.05816],[93.12839,23.0449],[93.12043,23.00348],[93.16426,22.91151],[93.12994,22.90401],[93.09477,22.80457],[93.09534,22.67316],[93.14033,22.59077],[93.10764,22.52899],[93.12818,22.52208],[93.13811,22.45544],[93.18202,22.42954],[93.20124,22.2657],[93.1421,22.24546],[93.15094,22.17637],[93.12841,22.17317],[93.11126,22.20372],[93.04621,22.20232],[93.05861,22.10583],[93.00483,22.09892],[93.0058,21.98554],[92.9791,21.98345],[92.9525,22.02974],[92.90642,21.94412],[92.85974,22.0656],[92.69691,22.15401],[92.6799,22.01225],[92.60331,21.97737],[92.60034,22.05598],[92.56339,22.12673],[92.57778,22.14101],[92.60783,22.12797],[92.60916,22.16378],[92.55098,22.50915],[92.52551,22.55756],[92.51646,22.72264],[92.47508,22.74569],[92.44749,22.89673],[92.4365,22.88537],[92.37268,22.93957],[92.39137,23.05947],[92.35932,23.1031],[92.35109,23.23314],[92.40415,23.24041],[92.36457,23.32243],[92.37881,23.36124],[92.31842,23.47062],[92.27258,23.72051],[92.2389,23.71698],[92.21307,23.65277],[92.20402,23.70347],[92.16901,23.73978],[92.14797,23.73526],[92.06423,23.64569],[92.00867,23.6635],[91.97827,23.73308],[91.95134,23.72649],[91.93714,23.681],[91.97008,23.48057],[91.93912,23.46118],[91.93904,23.43429],[91.8899,23.43333],[91.84396,23.4003],[91.76241,23.30291],[91.83145,23.08982],[91.80681,23.06478],[91.77821,23.07079],[91.78043,23.03143],[91.72058,22.98741],[91.6495,22.98312],[91.62339,22.94218],[91.6061,22.97191],[91.57196,22.97052],[91.54319,22.99871],[91.51467,23.13842],[91.49191,23.15603],[91.50252,23.18705],[91.45526,23.21705],[91.45429,23.25964],[91.41843,23.2554],[91.41564,23.28237],[91.38086,23.19097],[91.41624,23.06313],[91.36913,23.07138],[91.32434,23.16345],[91.31356,23.30423],[91.29079,23.3178],[91.3199,23.35939],[91.29233,23.3508],[91.25016,23.48625],[91.20298,23.51754],[91.21295,23.55041],[91.19445,23.54718],[91.16258,23.59603],[91.15735,23.66587],[91.19881,23.64653],[91.20801,23.68592],[91.15369,23.68903],[91.1571,23.73765],[91.22611,23.75231],[91.25332,23.83966],[91.22929,23.89879],[91.23839,23.92423],[91.27569,23.92277],[91.28445,23.98175],[91.29488,23.96974],[91.30307,23.99644],[91.37621,23.97527],[91.39654,24.04772],[91.37891,24.10777],[91.59085,24.07485],[91.63805,24.10743],[91.6569,24.22643],[91.69266,24.15978],[91.75978,24.14467],[91.74503,24.24697],[91.82045,24.2093],[91.84471,24.22577],[91.85395,24.18293],[91.90454,24.13842],[91.93957,24.26391],[91.92044,24.33595],[91.95889,24.3548],[91.99479,24.3221],[91.9671,24.38076],[92.09479,24.37269],[92.1366,24.41993],[92.16625,24.42156],[92.15348,24.51206],[92.16573,24.5292],[92.20945,24.50424],[92.22456,24.51923],[92.25512,24.6786],[92.29322,24.73133],[92.23607,24.89821],[92.29795,24.91596],[92.39676,24.8499],[92.48625,24.87164],[92.48679,24.94154],[92.44909,24.93888],[92.46191,24.96846],[92.4242,24.96486],[92.42586,25.02475],[92.34388,25.04853],[92.34463,25.07397],[92.20003,25.10772],[92.21906,25.11536],[92.1373,25.13832],[92.07385,25.18495],[91.74733,25.17399],[91.74704,25.14162],[91.70608,25.15697],[91.6354,25.1241],[91.60017,25.14787],[91.61022,25.17692],[91.47042,25.13374],[91.4161,25.16931],[91.29248,25.1838],[91.26511,25.20582],[91.07529,25.19829],[90.86096,25.15838],[90.78127,25.18557],[90.69857,25.15672],[90.6636,25.19305],[90.6273,25.1724],[90.49966,25.17183],[90.44639,25.14478],[90.32933,25.19364],[90.11638,25.22417],[89.96842,25.30268],[89.83285,25.29538],[89.81976,25.38136],[89.88201,25.61875],[89.82784,25.72985],[89.84093,25.76175],[89.81933,25.82016],[89.88551,25.94272],[89.82523,25.94616],[89.87103,25.9807],[89.83347,26.0117],[89.82141,25.98657],[89.80817,26.04362],[89.79282,26.01911],[89.79503,26.08576],[89.75867,26.10815],[89.74766,26.15737],[89.68275,26.16246],[89.69989,26.17131],[89.67346,26.20476],[89.68583,26.22677],[89.6358,26.22933],[89.64902,26.19169],[89.6293,26.18228],[89.65491,26.17094],[89.60878,26.1806],[89.61913,26.16855],[89.59286,26.15891],[89.60309,26.11967],[89.62962,26.1232],[89.59434,26.10159],[89.63111,26.10544],[89.65005,26.06411],[89.59255,26.0448],[89.57826,25.97147],[89.54114,25.9694],[89.5357,26.00626],[89.42979,26.01168],[89.42604,26.04403],[89.35771,26.00809],[89.25807,26.06333],[89.26582,26.0885],[89.22942,26.12353],[89.15375,26.14314],[89.14127,26.23263],[89.1023,26.28506],[89.10238,26.31032],[89.11939,26.28833],[89.13604,26.31697],[89.08544,26.32103],[89.09347,26.39354],[89.0362,26.39487],[88.95592,26.46018],[88.90993,26.40735],[88.91939,26.35938],[88.95627,26.36143],[88.95227,26.33247],[88.96844,26.35023],[88.99903,26.33078],[88.99597,26.29501],[89.06088,26.29108],[89.04951,26.24313],[88.9578,26.24028],[88.89721,26.28848],[88.86728,26.28063],[88.87646,26.23719],[88.83973,26.23168],[88.79277,26.30927],[88.66901,26.26323],[88.67545,26.31856],[88.74612,26.32241],[88.73909,26.34908],[88.70163,26.33811],[88.68489,26.38317],[88.70032,26.38555],[88.62356,26.4363],[88.62303,26.46953],[88.5646,26.45752],[88.48468,26.53829],[88.44367,26.53908],[88.41603,26.63128],[88.39805,26.62543],[88.33441,26.48079],[88.35228,26.45249],[88.37235,26.4883],[88.48296,26.46053],[88.52253,26.36248],[88.48369,26.34994],[88.45171,26.37037],[88.4152,26.31686],[88.35269,26.28363],[88.3507,26.22389],[88.18104,26.14947],[88.15869,26.09689],[88.18321,26.02678],[88.14117,26.01402],[88.12221,25.94996],[88.08609,25.91649],[88.10748,25.81575],[88.14794,25.77608],[88.26653,25.80989],[88.26784,25.78354],[88.3202,25.73875],[88.37341,25.71674],[88.40864,25.67124],[88.45318,25.66504],[88.44479,25.5996],[88.49931,25.58403],[88.50008,25.55143],[88.54605,25.50845],[88.60579,25.51596],[88.69374,25.47409],[88.71041,25.50057],[88.76366,25.49424],[88.75832,25.52357],[88.80636,25.52316],[88.83765,25.471],[88.81623,25.41349],[88.84135,25.3638],[88.93463,25.30303],[89.00635,25.29989],[89.00763,25.26362],[88.95746,25.25471],[88.96128,25.20828],[88.93932,25.21009],[88.94955,25.18123],[88.92319,25.16655],[88.84459,25.21281],[88.79988,25.17082],[88.70526,25.20775],[88.61435,25.20401],[88.56461,25.17551],[88.47711,25.21331],[88.44303,25.19317],[88.4614,25.14939],[88.44185,25.12152],[88.4497,25.03925],[88.39898,24.94568],[88.3419,24.94118],[88.331,24.87017],[88.27716,24.89497],[88.25918,24.87752],[88.26184,24.91555],[88.22308,24.95994],[88.1443,24.93658],[88.16396,24.85126],[88.13292,24.83628],[88.1357,24.80821],[88.11224,24.81398],[88.10612,24.77966],[88.07245,24.77296],[88.06513,24.72625],[88.0088,24.66789],[88.14076,24.51124],[88.33737,24.37978],[88.44173,24.38004],[88.52712,24.34438],[88.55506,24.29347],[88.56769,24.32665],[88.63429,24.30686],[88.69438,24.31555],[88.73391,24.27902],[88.74338,24.15208],[88.69519,24.11555],[88.74212,24.05517],[88.72412,24.04341],[88.75256,24.03278],[88.72869,23.99726],[88.75529,24.00651],[88.7692,23.98337],[88.73876,23.98343],[88.73337,23.9115],[88.70402,23.91251],[88.65963,23.8687],[88.57675,23.86143],[88.60213,23.81722],[88.56248,23.78532],[88.58062,23.76132],[88.55988,23.65147],[88.59233,23.64088],[88.57995,23.60407],[88.64442,23.60918],[88.65378,23.55813],[88.74162,23.48101],[88.79766,23.49963],[88.79351,23.44557],[88.76438,23.44826],[88.74972,23.40117],[88.76385,23.3654],[88.73802,23.35115],[88.74562,23.30865],[88.69894,23.30476],[88.71947,23.25754],[88.79076,23.21852],[88.80963,23.2535],[88.82382,23.23341],[88.90569,23.23571],[88.9425,23.20617],[88.98929,23.21585],[88.97607,23.18186],[88.93909,23.1768],[88.93093,23.14375],[88.87346,23.10217],[88.87975,23.00633],[88.84936,23.00924],[88.87011,22.9796],[88.85964,22.94301],[88.89389,22.95226],[88.90939,22.88191],[88.94931,22.87743],[88.96697,22.84728],[88.9588,22.79957],[88.91148,22.75878],[88.96111,22.69653],[88.92986,22.64412],[88.96023,22.61421],[88.94153,22.55907],[88.99612,22.46895],[88.99659,22.4277],[88.97204,22.40846],[88.99355,22.38706],[88.98473,22.33003],[89.02451,22.29738],[88.99568,22.28525],[89.07123,22.19742],[89.07107,22.14728],[89.09817,22.15471],[89.03828,22.09686],[89.07739,22.00395],[89.06628,21.9308],[88.99725,21.95079],[89.03038,22.00105],[88.99355,21.97861],[88.95359,22.01219],[88.91926,21.98148],[88.90247,22.00385],[88.89705,21.92413],[88.80575,21.93807],[88.8398,21.88636],[88.82148,21.78144],[88.86314,21.75484],[88.84116,21.71688],[88.86075,21.64468],[88.84559,21.6191],[88.80651,21.63432],[88.81459,21.71073],[88.76271,21.70197],[88.79094,21.73506],[88.7551,21.74448],[88.78076,21.82314],[88.74692,21.7686],[88.77593,21.72537],[88.75655,21.70297],[88.80687,21.70665],[88.80794,21.66268],[88.75,21.65817],[88.71141,21.68958],[88.69376,21.74531],[88.72549,21.97954],[88.75146,22.00623],[88.7102,21.99595],[88.68069,21.9438],[88.63072,21.95436],[88.63488,22.01077],[88.59257,21.98941],[88.57124,22.00044],[88.57534,21.96331],[88.54099,21.96161],[88.56677,21.9008],[88.54383,21.9057],[88.53823,21.86465],[88.51863,21.87561],[88.53673,21.85622],[88.41967,21.90397],[88.48359,21.87054],[88.48786,21.84038],[88.4491,21.81755],[88.46089,21.7932],[88.41742,21.81316],[88.34281,21.76133],[88.3426,21.71966],[88.32032,21.70883],[88.2882,21.79014],[88.26258,21.73538],[88.30065,21.6837],[88.28599,21.59763],[88.31018,21.58201],[88.25561,21.55814],[88.21934,21.61469],[88.23353,21.66698],[88.19922,21.68705],[88.22019,21.70478],[88.21526,21.77613],[88.15072,21.95979],[88.22316,22.07069],[88.20449,22.16512],[88.16418,22.19833],[88.06934,22.21191],[88.08811,22.25333],[88.05494,22.2105],[87.9507,22.26321],[88.01184,22.20084],[88.13439,22.18527],[88.1889,22.1064],[88.15366,22.06359],[88.05122,22.0152],[87.96835,21.85523],[87.8103,21.70738],[87.74833,21.69933],[87.67286,21.65225],[87.46037,21.606],[87.36248,21.55809],[87.2494,21.55653],[87.11523,21.51344],[86.89293,21.31795],[86.83214,21.21619],[86.85464,21.21041],[86.8479,21.0955],[86.98133,20.85299],[86.94204,20.77296],[86.9906,20.77062],[87.0056,20.69891],[87.0514,20.71451],[86.77785,20.52346],[86.73318,20.46079],[86.72512,20.39532],[86.74602,20.37979],[86.774,20.40401],[86.79587,20.37733],[86.77913,20.33729],[86.52044,20.17013],[86.378,19.96683],[86.40565,19.96777],[85.63803,19.72594],[85.31395,19.56479],[84.94597,19.28914],[84.815,19.16211],[84.70382,18.99312],[84.5871,18.86744],[84.55072,18.78966],[84.35161,18.55219],[84.14741,18.37342],[84.12375,18.31091],[83.85866,18.17372],[83.79844,18.16574],[83.56937,18.0118],[83.54254,17.96194],[83.4071,17.84103],[83.41093,17.8096],[83.34442,17.72409],[83.21647,17.5955],[82.56194,17.26157],[82.32608,17.06475],[82.24221,16.91184],[82.25024,16.88275],[82.31719,16.84563],[82.36157,16.85445],[82.35666,16.95307],[82.3278,16.98392],[82.35504,16.9687],[82.36462,16.87115],[82.3285,16.68554],[82.36273,16.70975],[82.31759,16.66302],[82.31935,16.58063],[82.31268,16.66524],[82.3139,16.63129],[82.28426,16.62603],[82.29685,16.58396],[82.26822,16.56621],[82.30823,16.56023],[82.23232,16.5449],[81.96114,16.3973],[81.86099,16.3762],[81.72407,16.30821],[81.48869,16.35341],[81.39379,16.34247],[81.3063,16.30409],[81.21626,16.2119],[81.14775,15.97324],[81.00477,15.8378],[81.00981,15.7552],[80.94107,15.71659],[80.82152,15.70934],[80.78794,15.76102],[80.79445,15.77343],[80.81944,15.71331],[80.77985,15.8383],[80.81529,15.81107],[80.80388,15.8442],[80.68134,15.88442],[80.46403,15.8212],[80.28996,15.69491],[80.2234,15.60234],[80.20526,15.47458],[80.12259,15.36882],[80.08553,15.28228],[80.08915,15.21257],[80.0471,15.07629],[80.09772,14.77955],[80.19469,14.58309],[80.16797,14.35265],[80.12997,14.22276],[80.13475,14.09161],[80.25138,13.79298],[80.2374,13.63556],[80.32503,13.44441],[80.34527,13.27989],[80.25962,12.93553],[80.25384,12.779],[80.1558,12.46494],[79.87789,12.05202],[79.7603,11.62075],[79.76149,11.53436],[79.84099,11.34695],[79.85831,11.12538],[79.8454,10.67782],[79.87989,10.30331],[79.86151,10.28284],[79.7811,10.27246],[79.75332,10.31302],[79.77754,10.28462],[79.76575,10.27187],[79.53305,10.30814],[79.54529,10.32341],[79.3959,10.31864],[79.30164,10.26505],[79.24326,10.18686],[79.21948,10.11306],[79.26611,10.03923],[79.11272,9.8915],[79.11995,9.85374],[79.02238,9.75282],[78.92895,9.59379],[78.9003,9.46879],[79.01241,9.33296],[79.06962,9.29565],[79.1894,9.28307],[79.26308,9.29238],[79.3187,9.32549],[79.33516,9.31151],[79.315,9.2831],[79.3246,9.26289],[79.43632,9.16097],[79.30502,9.24418],[79.22295,9.25874],[79.19728,9.28251],[79.08572,9.26162],[78.96484,9.27417],[78.8611,9.2554],[78.71196,9.19054],[78.66137,9.19266],[78.64205,9.17328],[78.65557,9.15832],[78.57626,9.13101],[78.40499,9.10913],[78.21504,8.96604],[78.18558,8.92112],[78.15816,8.79917],[78.18959,8.76381],[78.19594,8.78817],[78.19569,8.75231],[78.15972,8.7357],[78.12564,8.66509],[78.12697,8.49163],[78.06575,8.421],[78.0615,8.37435],[77.80762,8.24269],[77.74252,8.17599],[77.5766,8.13623],[77.54942,8.07828],[77.31785,8.12169],[77.01334,8.35509],[76.63474,8.83241],[76.54262,8.91262],[76.49913,9.05822],[76.33025,9.44125],[76.23693,9.97094],[76.09925,10.37995],[75.9101,10.78613],[75.8467,11.06287],[75.73185,11.35581],[75.68318,11.44751],[75.61889,11.47478],[75.50839,11.73174],[75.3862,11.85473],[75.35689,11.85932],[75.24623,12.01145],[75.20458,12.00561],[75.18393,12.04421],[74.82443,12.84906],[74.6971,13.3479],[74.66851,13.64017],[74.60757,13.86718],[74.57085,13.94392],[74.51398,13.98686],[74.35762,14.51632],[74.31452,14.52131],[74.25042,14.73874],[74.22923,14.74804],[74.20806,14.71899],[74.15097,14.74903],[74.1391,14.77987],[74.119,14.77425],[74.09277,14.804],[74.12323,14.80441],[74.1251,14.83789],[74.09824,14.89415],[74.04413,14.91713],[74.03877,14.99271],[73.98983,15.02177],[73.98783,15.05495],[73.918,15.08205],[73.95318,15.13774],[73.89449,15.33084],[73.87369,15.36789],[73.84006,15.35995],[73.79272,15.39277],[73.7882,15.45922],[73.68937,15.71801],[73.73942,15.73448],[73.68475,15.72025],[73.64986,15.7449],[73.65626,15.79576],[73.62866,15.84717],[73.58977,15.90639],[73.5087,15.94597],[73.4565,16.06059],[73.44289,16.18023],[73.31259,16.53532],[73.34454,16.56961],[73.31742,16.60167],[73.35415,16.61806],[73.32225,16.64249],[73.32912,16.68788],[73.30591,16.73223],[73.31811,16.79882],[73.29677,16.8158],[73.29857,16.89681],[73.28046,16.90119],[73.29569,16.98404],[73.26987,16.98799],[73.28329,17.01214],[73.25594,17.02656],[73.25708,17.04772],[73.28508,17.04969],[73.28327,17.10205],[73.23328,17.20152],[73.24338,17.22491],[73.19246,17.30281],[73.25806,17.28024],[73.23556,17.28811],[73.20779,17.38413],[73.16826,17.40168],[73.19244,17.46723],[73.13698,17.55669],[73.15228,17.59496],[73.11378,17.68961],[73.13408,17.71856],[73.02989,17.94654],[73.04026,17.97844],[72.99038,18.05577],[72.97999,18.19247],[72.93172,18.2234],[72.93588,18.28047],[72.98648,18.28228],[72.91522,18.35514],[72.92488,18.38644],[72.8943,18.46812],[72.92174,18.54718],[72.86236,18.62974],[72.86499,18.80521],[72.91337,18.80027],[72.94379,18.82636],[72.99363,18.77821],[72.97657,18.83616],[72.99337,18.87031],[72.96099,18.84104],[72.91835,18.85541],[72.90385,18.90335],[72.93805,18.91668],[72.95723,18.95549],[72.94324,18.98632],[72.8853,18.98148],[72.88128,19.01783],[72.80539,18.89667],[72.82277,18.94237],[72.79263,18.94796],[72.83876,19.04444],[72.8199,19.04096],[72.80984,19.14572],[72.78799,19.13269],[72.77901,19.27873],[72.82995,19.33462],[72.8012,19.32356],[72.74598,19.37477],[72.74955,19.48927],[72.72038,19.50052],[72.71251,19.53831],[72.72532,19.60833],[72.70016,19.65822],[72.70825,19.70078],[72.675,19.71872],[72.68326,19.78991],[72.64279,19.84288],[72.64747,19.86958],[72.67937,19.87202],[72.66396,19.9324],[72.72088,19.96907],[72.70816,20.06915],[72.74553,20.11472],[72.75637,20.28809],[72.78803,20.34617],[72.82044,20.36119],[72.80534,20.37244],[72.82008,20.43292],[72.88698,20.50309],[72.89799,20.58302],[72.85372,20.75401],[72.82408,20.78392],[72.83924,20.80525],[72.78161,20.91762],[72.81888,20.92751],[72.81846,20.9484],[72.75298,20.942],[72.72233,21.03682],[72.74119,21.07446],[72.68789,21.08373],[72.67001,21.11425],[72.64482,21.08613],[72.62006,21.10034],[72.6557,21.22123],[72.62226,21.24259],[72.59863,21.30058],[72.60117,21.38862],[72.68377,21.45491],[72.61832,21.40299],[72.58214,21.4161],[72.70662,21.52739],[72.74882,21.52819],[72.75955,21.56988],[72.82121,21.61236],[72.84168,21.65582],[72.87036,21.6434],[72.87724,21.67256],[72.9622,21.67399],[72.85359,21.6854],[72.80129,21.65769],[72.74036,21.69014],[72.60226,21.68661],[72.54134,21.66207],[72.53247,21.7181],[72.60266,21.75384],[72.59373,21.80324],[72.62308,21.87714],[72.64563,21.89569],[72.69127,21.88258],[72.69244,21.93949],[72.74768,21.96433],[72.72522,21.99647],[72.70781,21.9534],[72.63715,21.95536],[72.54178,21.91438],[72.53707,22.0734],[72.58502,22.2019],[72.64658,22.21599],[72.78268,22.15757],[72.78276,22.19286],[72.85256,22.24116],[72.84914,22.27129],[72.69975,22.20008],[72.62605,22.23352],[72.54707,22.2247],[72.29831,22.03178],[72.2701,21.97557],[72.20933,21.95734],[72.20458,21.89337],[72.2416,21.82448],[72.20533,21.82361],[72.30548,21.62508],[72.23553,21.45647],[72.10847,21.30253],[72.083,21.24458],[72.10618,21.19753],[72.009,21.13774],[71.81527,21.0686],[71.79768,21.03784],[71.51269,20.94498],[71.43506,20.86857],[71.38107,20.87461],[71.38436,20.85874],[71.20927,20.80089],[71.14846,20.75892],[71.00211,20.73609],[70.97407,20.70417],[70.8232,20.6918],[70.43992,20.8525],[70.18612,21.03197],[69.61498,21.62547],[69.21848,21.95582],[68.95887,22.23783],[68.93591,22.31128],[68.97665,22.4027],[69.06593,22.47746],[69.0797,22.46943],[69.04174,22.44639],[69.03965,22.39002],[69.11091,22.4097],[69.12238,22.379],[69.1915,22.42164],[69.13624,22.21883],[69.15475,22.19514],[69.18464,22.2402],[69.21257,22.21431],[69.23543,22.22155],[69.2395,22.25685],[69.28234,22.25634],[69.33731,22.30704],[69.33137,22.32504],[69.42008,22.31639],[69.48608,22.3362],[69.51587,22.37306],[69.60113,22.34682],[69.61663,22.36739],[69.65269,22.35832],[69.66366,22.39117],[69.70055,22.39625],[69.69538,22.45008],[69.73466,22.48463],[69.73309,22.44318],[69.79727,22.40596],[69.79514,22.37784],[69.83282,22.44707],[69.871,22.42297],[69.93646,22.47889],[69.97732,22.46815],[69.98732,22.51018],[70.07312,22.51783],[70.11783,22.49168],[70.12596,22.51329],[70.18439,22.52944],[70.17845,22.56526],[70.25976,22.65104],[70.28479,22.72726],[70.46264,22.83244],[70.49703,22.89544],[70.53532,22.91272],[70.43458,22.96628],[70.54046,22.96164],[70.56546,23.03215],[70.60251,23.03454],[70.59683,23.06067],[70.76177,23.14483],[70.77258,23.16822],[70.79231,23.15211],[70.81617,23.16442],[70.82536,23.08446],[70.85815,23.13066],[70.82809,23.15785],[70.95782,23.19365],[70.86127,23.19357],[70.89068,23.2232],[70.831,23.24845],[70.81225,23.23007],[70.77181,23.24767],[70.72802,23.21067],[70.6508,23.2239],[70.644,23.18991],[70.5808,23.17788],[70.50678,23.17773],[70.43167,23.21529],[70.42859,23.23648],[70.30345,23.22391],[70.26792,23.17887],[70.21369,23.1639],[70.15472,23.04123],[70.21289,23.07101],[70.22641,22.95182],[70.16517,22.93828],[70.12284,22.96129],[70.14821,23.03482],[70.02766,22.92778],[69.89836,22.87116],[69.65413,22.79662],[69.57949,22.81643],[69.47361,22.79627],[69.41977,22.81003],[69.49156,22.7792],[69.46975,22.77434],[69.38122,22.81877],[69.19583,22.83803],[68.81094,23.07599],[68.81093,23.06061],[68.75942,23.07979],[68.78077,23.08302],[68.76187,23.08958],[68.77601,23.12201],[68.7471,23.11052],[68.68368,23.15228],[68.6703,23.21617],[68.62646,23.21018],[68.72452,23.25513],[68.70377,23.28624],[68.71374,23.31714],[68.68495,23.31049],[68.66051,23.34745],[68.64801,23.30872],[68.61897,23.37261],[68.53576,23.43327],[68.54384,23.46314],[68.52158,23.46087],[68.48685,23.55113],[68.51347,23.64398],[68.56819,23.68773],[68.54913,23.69263],[68.55645,23.71546],[68.59079,23.705],[68.63044,23.72721],[68.61365,23.73184],[68.64263,23.73956],[68.64974,23.79115],[68.70568,23.82631],[68.69271,23.84442],[68.58292,23.82182],[68.52108,23.74389],[68.42098,23.73321],[68.38893,23.59562],[68.27911,23.56142],[68.192,23.58067],[68.20684,23.58497],[68.17766,23.61919],[68.20847,23.65067],[68.18586,23.65546],[68.20666,23.66889],[68.18165,23.72163],[68.20741,23.87346],[68.27574,23.92877],[68.33471,23.92713],[68.34768,23.97438],[68.75303,23.97131],[68.76551,24.28944],[68.80669,24.31296],[68.83071,24.31186],[68.87069,24.21236],[68.94124,24.30023],[69.0012,24.22351],[69.09573,24.27413],[69.19253,24.23646],[69.31686,24.28118],[69.49401,24.26778],[69.59445,24.2924],[69.72798,24.17381],[70.02027,24.1713],[70.06681,24.19916],[70.10979,24.29479],[70.3707,24.35222],[70.56278,24.42109],[70.60247,24.40812],[70.56228,24.35136],[70.58463,24.28635],[70.57333,24.25104],[70.71693,24.2157],[70.80644,24.22112],[70.90223,24.25705],[70.87715,24.298],[70.94535,24.3461],[71.03992,24.35327],[71.12184,24.40566],[71.10456,24.4346],[71.0,24.44467],[70.98626,24.59546],[71.09374,24.69124],[70.9377,24.9384],[70.88702,25.14965],[70.75158,25.27782],[70.73734,25.33086],[70.66559,25.39922],[70.66286,25.69688],[70.61328,25.71479],[70.53015,25.68348],[70.387,25.67383],[70.26997,25.71308],[70.10043,25.93728],[70.08354,26.08172],[70.17456,26.24888],[70.17433,26.55102],[70.05798,26.60009],[69.88985,26.57907],[69.80891,26.59324],[69.50811,26.74837],[69.48466,26.80739],[69.51334,27.00922],[69.58684,27.18332],[69.86248,27.40181],[69.93389,27.49783],[70.0236,27.56147],[70.13556,27.8095],[70.37789,28.01253],[70.50493,28.03691],[70.58994,28.00953],[70.67443,27.92446],[70.68377,27.83236],[70.73939,27.74284],[70.76212,27.72082],[70.87079,27.70576],[71.21222,27.83649],[71.38602,27.8727],[71.66293,27.87772],[71.89875,27.96339],[71.92953,28.12455],[72.00606,28.22],[72.20613,28.39427],[72.29924,28.66975],[72.39435,28.77389],[72.73309,28.94809],[72.94543,29.02774],[73.00436,29.15295],[73.08443,29.23627],[73.2821,29.57203],[73.39693,29.946],[73.80273,30.06708],[73.9695,30.19572],[73.95767,30.27374],[73.87978,30.35972],[73.96486,30.42518],[73.9708,30.43941],[73.92977,30.43817],[73.93359,30.48727],[73.96129,30.45692],[74.01161,30.52815],[74.04713,30.53981],[74.07314,30.52404],[74.0962,30.61159],[74.19509,30.66669],[74.23092,30.72253],[74.28027,30.73204],[74.26052,30.7706],[74.30297,30.78095],[74.32022,30.84545],[74.38209,30.86043],[74.36668,30.88848],[74.42333,30.90882],[74.42224,30.94134],[74.54439,30.99159],[74.56343,31.04995],[74.59616,31.0391],[74.69429,31.07278],[74.69002,31.12462],[74.60661,31.13305],[74.60627,31.09473],[74.56719,31.08206],[74.5484,31.1214],[74.5115,31.13549],[74.52701,31.31123],[74.55318,31.36602],[74.60713,31.42053],[74.65394,31.4256],[74.6292,31.48354],[74.57593,31.50042],[74.61284,31.53208],[74.61283,31.56719],[74.487,31.71634],[74.55883,31.75747],[74.57072,31.83581],[74.60747,31.8867],[74.82031,31.96074],[74.87877,32.05294],[74.93164,32.06584],[75.01195,32.03586],[75.12174,32.08019],[75.17419,32.06749],[75.20246,32.12024],[75.23765,32.09125],[75.27988,32.11927],[75.31658,32.20772],[75.37296,32.23084],[75.37788,32.27353],[75.3228,32.30125],[75.32581,32.33764],[75.19241,32.40187],[75.18977,32.42581],[75.13551,32.4096],[75.10321,32.47627],[75.03002,32.49487],[75.00329,32.45723],[74.95479,32.44966],[74.87728,32.49297],[74.79768,32.47651],[74.68792,32.48687],[74.69061,32.53296],[74.66535,32.5429],[74.63979,32.61074],[74.69347,32.65799],[74.6545,32.69479],[74.65591,32.72796],[74.70446,32.83916],[74.64277,32.82119],[74.65662,32.78941],[74.63426,32.74954],[74.51159,32.7455],[74.50665,32.76611],[74.44867,32.78426],[74.35505,32.767],[74.30892,32.82571],[74.22161,32.84881],[74.18443,32.88668],[74.06343,32.91245],[74.05372,32.93501],[73.99968,32.9354],[73.96779,32.98434],[73.82932,33.00343],[73.79338,32.96577],[73.79451,33.00359],[73.74911,33.03362],[73.74061,33.06728],[73.63774,33.08464],[73.63127,33.13725],[73.66442,33.1637],[73.66677,33.20435],[73.64953,33.22238],[73.63379,33.21151],[73.56637,33.37189],[73.59524,33.43722],[73.63237,33.45517],[73.60294,33.49924],[73.64111,33.52554],[73.61172,33.60079],[73.56715,33.61774],[73.56746,33.66849],[73.60314,33.71509],[73.56119,33.77868],[73.59284,33.8938],[73.51894,33.99632],[73.48084,34.28942],[73.45986,34.27621],[73.3961,34.37161],[73.42628,34.42305],[73.43118,34.51921],[73.45046,34.56994],[73.52718,34.57036],[73.55613,34.58984],[73.646,34.56089],[73.69468,34.64702],[73.65905,34.6731],[73.72994,34.77222],[73.83771,34.81316],[73.91937,34.81165],[73.97226,34.8635],[74.02992,34.87628],[74.0372,34.91923],[74.06993,34.9337],[74.0632,34.99618],[74.10975,35.01607],[74.07294,35.06145],[74.13367,35.11005],[74.10663,35.14796],[74.03076,35.14802],[74.00415,35.18165],[73.95174,35.1728],[73.92455,35.2039],[73.85672,35.20994],[73.80833,35.2395],[73.73544,35.21017],[73.70842,35.2222],[73.72498,35.27305],[73.69544,35.36907],[73.72702,35.41899],[73.7903,35.45294],[73.7785,35.52289],[73.63145,35.56743],[73.5568,35.54684],[73.48109,35.57125],[73.40267,35.55739],[73.36348,35.59722],[73.26868,35.62439],[73.12811,35.71639],[73.14791,35.82875],[73.08388,35.87746],[73.02427,35.84674],[72.98708,35.85981],[72.91844,35.83906],[72.88272,35.8755],[72.8157,35.88008],[72.76144,35.8323],[72.72658,35.85305],[72.67792,35.82372],[72.58002,35.86438],[72.51276,35.93643],[72.58086,36.0133],[72.56876,36.04462],[72.51668,36.06733],[72.56123,36.14397],[72.54731,36.20541],[72.58466,36.25689],[72.62396,36.26881],[72.68483,36.24388],[72.67735,36.26526],[72.75652,36.29727],[72.87019,36.38564],[72.85915,36.43366],[72.90815,36.46092],[72.97936,36.45732],[72.9788,36.50747],[73.04477,36.53068],[73.09789,36.60992],[73.07411,36.62878],[73.06841,36.6972],[73.11644,36.6842],[73.17067,36.72403],[73.2014,36.69553],[73.29412,36.70423],[73.42531,36.74291],[73.5199,36.71029],[73.57527,36.72045],[73.59271,36.69284],[73.68927,36.68757],[73.70606,36.70853],[73.77478,36.70209],[73.79162,36.71748],[73.86698,36.70079],[73.87126,36.7621],[73.84233,36.79099],[73.80151,36.79422],[73.79757,36.8182],[73.70551,36.83781],[73.66551,36.88538],[73.67109,36.9117],[73.9149,36.88298],[73.9615,36.83927],[74.04652,36.81082],[74.13094,36.84618],[74.15575,36.91051],[74.25376,36.89573],[74.42642,36.99569],[74.52296,36.99513],[74.56054,36.9572],[74.58167,37.05757],[74.69012,37.08814],[74.71192,37.06379]],[[74.51973,31.23189],[74.51973,31.23189]],[[79.93052,30.88151],[79.93052,30.88151]],[[82.20697,27.84353],[82.20697,27.84353]],[[88.72674,23.31889],[88.72674,23.31889]],[[91.53173,23.05586],[91.53173,23.05586]],[[83.80265,27.38273],[83.80265,27.38273]]]}}]}